start_ip,end_ip,join_key,city,region,country,latitude,longitude,postal_code,timezone
101.49.35.146,101.49.35.146,101.49.0.0,Richmond,Virginia,US,37.55376,-77.46026,23173,America/New_York
101.189.197.50,101.189.197.157,101.189.0.0,Brisbane,Queensland,AU,-27.42598,153.00288,4051,Australia/Brisbane
101.140.228.128,101.140.228.205,101.140.0.0,Ōtsu,Shiga,JP,35,135.86667,520-0043,Asia/Tokyo
103.180.104.0,103.180.105.255,103.180.0.0,Jessore,Khulna,BD,23.16971,89.21371,7402,Asia/Dhaka
102.168.193.72,102.168.193.72,102.168.0.0,Sousse,Sūsah,TN,35.82539,10.63699,,Africa/Tunis
105.93.223.53,105.93.223.53,105.93.0.0,Cairo,Cairo,EG,30.06263,31.24967,,Africa/Cairo
108.206.187.164,108.206.187.165,108.206.0.0,Fort Worth,Texas,US,32.7002,-97.3789,76109,America/Chicago
107.15.138.136,107.15.138.139,107.15.0.0,Raleigh,North Carolina,US,35.8949,-78.7051,27613,America/New_York
104.138.226.143,104.138.226.151,104.138.0.0,Winston-Salem,North Carolina,US,36.1024,-80.2228,27101,America/New_York
102.169.20.120,102.169.20.120,102.169.0.0,Sousse,Sūsah,TN,35.82539,10.63699,,Africa/Tunis
104.183.40.20,104.183.40.35,104.183.0.0,Woodlands,California,US,35.02888,-120.55239,93444,America/Los_Angeles
1.217.165.192,1.217.165.197,1.217.0.0,Seoul,Seoul,KR,37.566,126.9784,03141,Asia/Seoul
101.49.23.104,101.49.23.107,101.49.0.0,Richmond,Virginia,US,37.55376,-77.46026,23173,America/New_York
108.228.75.36,108.228.75.39,108.228.0.0,Memphis,Tennessee,US,35.144,-90.048,38103,America/Chicago
101.191.233.16,101.191.233.23,101.191.0.0,Newcastle,New South Wales,AU,-32.94739,151.70034,2289,Australia/Sydney
103.103.148.0,103.103.149.255,103.103.0.0,Sydney,New South Wales,AU,-33.86785,151.20732,1001,Australia/Sydney
102.106.39.141,102.106.39.141,102.106.0.0,Sfax,Şafāqis,TN,34.74056,10.76028,,Africa/Tunis
104.36.33.0,104.36.33.42,104.36.0.0,New York City,New York,US,40.71427,-74.00597,10004,America/New_York
104.53.152.68,104.53.152.83,104.53.0.0,Waxahachie,Texas,US,32.38653,-96.84833,75165,America/Chicago
1.78.127.0,1.78.127.3,1.78.0.0,Chōfu,Tokyo,JP,35.6669,139.5285,182-0032,Asia/Tokyo
104.117.145.0,104.117.145.255,104.117.0.0,Los Angeles,California,US,34.05223,-118.24368,90009,America/Los_Angeles
101.175.67.148,101.175.67.148,101.175.0.0,Iluka,Western Australia,AU,-31.73554,115.73058,6028,Australia/Perth
102.168.149.6,102.168.149.12,102.168.0.0,Sousse,Sūsah,TN,35.82539,10.63699,,Africa/Tunis
106.208.11.231,106.208.11.232,106.208.0.0,Hyderābād,Telangana,IN,17.38405,78.45636,500001,Asia/Kolkata
103.30.247.36,103.30.247.93,103.30.0.0,Jakarta,Jakarta,ID,-6.21462,106.84513,,Asia/Jakarta
104.240.119.188,104.240.119.193,104.240.0.0,Bloomington,Illinois,US,40.4842,-88.99369,61701,America/Chicago
103.168.199.150,103.168.199.151,103.168.0.0,Kallakkurichchi,Tamil Nadu,IN,11.7404,78.959,606213,Asia/Kolkata
106.70.75.208,106.70.75.243,106.70.0.0,Brisbane,Queensland,AU,-27.50265,152.97678,4068,Australia/Brisbane
1.20.126.0,1.20.136.255,1.20.0.0,Lat Bua Luang,Phra Nakhon Si Ayutthaya,TH,14.1833,100.2833,10210,Asia/Bangkok
104.136.210.134,104.136.210.134,104.136.0.0,Crystal River,Florida,US,28.8547,-82.6669,34429,America/New_York
1.146.111.248,1.146.111.251,1.146.0.0,Townsville,Queensland,AU,-19.29718,146.76603,4814,Australia/Brisbane
108.253.19.176,108.253.19.183,108.253.0.0,Memphis,Tennessee,US,35.14953,-90.04898,37544,America/Chicago
1.20.157.52,1.20.157.53,1.20.0.0,Bang Mun Nak,Phichit,TH,16.02781,100.37917,66120,Asia/Bangkok
1.158.26.98,1.158.26.99,1.158.0.0,Sydney,New South Wales,AU,-33.86785,151.20732,1001,Australia/Sydney
105.93.230.89,105.93.230.89,105.93.0.0,Cairo,Cairo,EG,30.06263,31.24967,,Africa/Cairo
104.12.206.0,104.12.207.255,104.12.0.0,Austin,Texas,US,30.4036,-97.7526,78759,America/Chicago
108.59.30.23,108.59.30.23,108.59.0.0,Tallahassee,Florida,US,30.43826,-84.28073,32302,America/New_York
102.155.227.0,102.155.227.127,102.155.0.0,Hammam Sousse,Sūsah,TN,35.8609,10.60313,,Africa/Tunis
107.141.44.68,107.141.44.81,107.141.0.0,Coffeyville,Kansas,US,37.0373,-95.61637,67337,America/Chicago
101.177.129.72,101.177.129.75,101.177.0.0,Corella,Queensland,AU,-26.1,152.63333,4570,Australia/Brisbane
102.106.114.251,102.106.114.251,102.106.0.0,Sousse,Sūsah,TN,35.82539,10.63699,,Africa/Tunis
1.176.102.248,1.176.102.255,1.176.0.0,Busan,Busan,KR,35.10168,129.03004,48902,Asia/Seoul
101.174.124.72,101.174.124.79,101.174.0.0,Araluen,New South Wales,AU,-35.64589,149.81744,2622,Australia/Sydney
100.41.26.45,100.41.26.45,100.41.0.0,Philadelphia,Pennsylvania,US,39.95238,-75.16362,19099,America/New_York
108.170.234.73,108.170.234.73,108.170.0.0,Sydney,New South Wales,AU,-33.86785,151.20732,1001,Australia/Sydney
107.12.78.48,107.12.78.49,107.12.0.0,Summerville,South Carolina,US,32.9756,-80.1831,29485,America/New_York
102.170.129.153,102.170.129.154,102.170.0.0,Sfax,Şafāqis,TN,34.74056,10.76028,,Africa/Tunis
108.212.219.0,108.212.221.255,108.212.0.0,Nashville,Tennessee,US,36.16589,-86.78444,37201,America/Chicago
104.158.92.52,104.158.92.53,104.158.0.0,Toronto,Ontario,CA,43.70011,-79.4163,M5A,America/Toronto
100.139.215.0,100.139.215.127,100.139.0.0,Houston,Texas,US,29.6889,-95.4341,77025,America/Chicago
105.247.139.211,105.247.139.213,105.247.0.0,Pretoria,Gauteng,ZA,-25.74486,28.18783,0083,Africa/Johannesburg
106.124.125.0,106.124.125.127,106.124.0.0,Nanjing,Jiangsu,CN,32.06167,118.77778,,Asia/Shanghai
106.214.209.100,106.214.209.100,106.214.0.0,Ludhiāna,Punjab,IN,30.91204,75.85379,141120,Asia/Kolkata
101.180.143.152,101.180.143.176,101.180.0.0,Melbourne,Victoria,AU,-37.77535,145.00455,3070,Australia/Melbourne
101.180.25.244,101.180.25.255,101.180.0.0,Sydney,New South Wales,AU,-33.89072,151.26472,2026,Australia/Sydney
105.139.123.128,105.139.123.255,105.139.0.0,Salé Al Jadida,Rabat-Salé-Kénitra,MA,33.99722,-6.74047,,Africa/Casablanca
106.67.135.57,106.67.135.58,106.67.0.0,Nagpur,Maharashtra,IN,21.14631,79.08491,440003,Asia/Kolkata
104.4.53.0,104.4.53.67,104.4.0.0,Gulfport,Mississippi,US,30.4601,-89.0886,39503,America/Chicago
1.38.134.138,1.38.134.141,1.38.0.0,Dimāpur,Nagaland,IN,25.91174,93.7217,797112,Asia/Kolkata
106.220.193.144,106.220.193.171,106.220.0.0,Pune,Maharashtra,IN,18.51957,73.85535,411001,Asia/Kolkata
104.240.45.190,104.240.45.201,104.240.0.0,Chinle,Arizona,US,36.15445,-109.55261,86503,America/Denver
108.214.255.0,108.214.255.255,108.214.0.0,Bay City,Texas,US,28.8636,-95.9173,77414,America/Chicago
101.5.162.224,101.5.162.235,101.5.0.0,Shanghai,Shanghai,CN,31.22222,121.45806,,Asia/Shanghai
108.193.172.0,108.193.172.255,108.193.0.0,Johns Creek,Georgia,US,34.02893,-84.19858,30022,America/New_York
1.54.5.37,1.54.5.37,1.54.0.0,Bạc Liêu,Bạc Liêu,VN,9.29414,105.72776,97150,Asia/Ho_Chi_Minh
102.168.133.1,102.168.133.3,102.168.0.0,Sfax,Şafāqis,TN,34.74056,10.76028,,Africa/Tunis
108.59.66.224,108.59.66.231,108.59.0.0,Rawdon,Quebec,CA,46.05007,-73.71587,J6E,America/Toronto
108.245.182.156,108.245.182.157,108.245.0.0,Howard,Wisconsin,US,44.5436,-88.08816,54303,America/Chicago
106.71.91.196,106.71.91.199,106.71.0.0,Gympie,Queensland,AU,-26.18979,152.66499,4570,Australia/Brisbane
108.94.2.132,108.94.2.132,108.94.0.0,Cobb,California,US,38.82213,-122.72305,95426,America/Los_Angeles
105.184.78.230,105.184.78.230,105.184.0.0,Witbank,Mpumalanga,ZA,-25.8667,29.2333,1044,Africa/Johannesburg
100.206.21.128,100.206.21.255,100.206.0.0,Paterson,New Jersey,US,40.9309,-74.1555,07524,America/New_York
105.93.164.154,105.93.164.154,105.93.0.0,Banī Suwayf,Beni Suweif,EG,29.07441,31.09785,,Africa/Cairo
104.247.226.107,104.247.226.107,104.247.0.0,Tecumseh,Ontario,CA,42.2946,-82.8667,N8N,America/Toronto
102.169.117.139,102.169.117.144,102.169.0.0,Sousse,Sūsah,TN,35.82539,10.63699,,Africa/Tunis
102.169.57.44,102.169.57.44,102.169.0.0,Sousse,Sūsah,TN,35.82539,10.63699,,Africa/Tunis
106.217.63.176,106.217.63.195,106.217.0.0,Mangalore,Karnataka,IN,12.91723,74.85603,583230,Asia/Kolkata
1.226.99.0,1.226.99.255,1.226.0.0,Daejeon,Daejeon,KR,36.3524,127.3606,35274,Asia/Seoul
102.135.178.64,102.135.178.65,102.135.0.0,Goma,Nord Kivu,CD,-1.67409,29.22845,,Africa/Lubumbashi
101.33.236.160,101.33.236.207,101.33.0.0,Shenzhen,Guangdong,CN,22.54554,114.0683,,Asia/Shanghai
106.214.215.54,106.214.215.55,106.214.0.0,Ludhiāna,Punjab,IN,30.91204,75.85379,141120,Asia/Kolkata
108.196.230.154,108.196.230.157,108.196.0.0,Stillwater,Oklahoma,US,36.1396,-97.063,74075,America/Chicago
107.144.55.140,107.144.55.143,107.144.0.0,St. Petersburg,Florida,US,27.789,-82.6779,33713,America/New_York
108.220.160.36,108.220.160.47,108.220.0.0,Canton,Illinois,US,40.55809,-90.03512,61520,America/Chicago
104.235.113.75,104.235.113.75,104.235.0.0,Sandwich,Illinois,US,41.64586,-88.62174,60548,America/Chicago
103.151.56.24,103.151.56.26,103.151.0.0,Ho Chi Minh City,Ho Chi Minh,VN,10.82302,106.62965,71606,Asia/Ho_Chi_Minh
1.145.252.80,1.145.252.95,1.145.0.0,Austins Ferry,Tasmania,AU,-42.8317,147.1938,7012,Australia/Hobart
104.250.169.0,104.250.170.255,104.250.0.0,London,England,GB,51.50853,-0.12574,EC1A,Europe/London
101.113.169.0,101.113.169.69,101.113.0.0,Sydney,New South Wales,AU,-33.9036,151.1853,2043,Australia/Sydney
108.233.102.0,108.233.102.255,108.233.0.0,Corona,California,US,33.87529,-117.56644,92877,America/Los_Angeles
107.0.81.45,107.0.81.49,107.0.0.0,Denver,Colorado,US,39.73915,-104.9847,80203,America/Denver
106.223.164.121,106.223.164.121,106.223.0.0,Morādābād,Uttar Pradesh,IN,28.83893,78.77684,244001,Asia/Kolkata
105.89.206.209,105.89.206.210,105.89.0.0,Cairo,Cairo,EG,30.06263,31.24967,,Africa/Cairo
102.185.60.15,102.185.60.15,102.185.0.0,Alexandria,Alexandria,EG,31.20176,29.91582,,Africa/Cairo
1.12.219.32,1.12.219.95,1.12.0.0,Shenzhen,Guangdong,CN,22.54554,114.0683,,Asia/Shanghai
1.22.28.0,1.22.29.255,1.22.0.0,Artist Village,Maharashtra,IN,19.03227,73.04276,400703,Asia/Kolkata
107.142.236.198,107.142.236.255,107.142.0.0,Canton,Ohio,US,40.7598,-81.35,44707,America/New_York
107.0.137.64,107.0.137.78,107.0.0.0,Chicago,Illinois,US,41.85003,-87.65005,60666,America/Chicago
108.210.35.234,108.210.35.235,108.210.0.0,Magnolia,Arkansas,US,33.26707,-93.23933,71753,America/Chicago
102.140.201.28,102.140.201.31,102.140.0.0,Garissa,Garissa,KE,-0.45275,39.64601,,Africa/Nairobi
108.4.183.224,108.4.183.255,108.4.0.0,Roanoke,Virginia,US,37.27097,-79.94143,24011,America/New_York
105.93.168.123,105.93.168.123,105.93.0.0,Cairo,Cairo,EG,30.06263,31.24967,,Africa/Cairo
108.87.43.208,108.87.43.213,108.87.0.0,Ardmore,Oklahoma,US,34.1566,-97.1792,73401,America/Chicago
101.189.48.196,101.189.48.199,101.189.0.0,Wickham,Western Australia,AU,-20.67474,117.13784,6720,Australia/Perth
106.133.39.170,106.133.39.170,106.133.0.0,Osaka,Ōsaka,JP,34.69374,135.50218,543-0062,Asia/Tokyo
1.158.193.160,1.158.193.163,1.158.0.0,Port Augusta,South Australia,AU,-32.49597,137.77281,5700,Australia/Adelaide
103.147.33.12,103.147.33.13,103.147.0.0,Semarang,Central Java,ID,-6.99306,110.42083,,Asia/Jakarta
106.194.136.0,106.194.136.39,106.194.0.0,Indore,Madhya Pradesh,IN,22.71792,75.8333,452002,Asia/Kolkata
1.157.104.0,1.157.104.223,1.157.0.0,Canberra,Australian Capital Territory,AU,-35.24851,149.05619,2614,Australia/Sydney
102.109.48.192,102.109.48.192,102.109.0.0,Sfax,Şafāqis,TN,34.74056,10.76028,,Africa/Tunis
105.93.176.240,105.93.176.244,105.93.0.0,Cairo,Cairo,EG,30.06263,31.24967,,Africa/Cairo
102.185.8.5,102.185.8.5,102.185.0.0,Zagazig,Sharqia,EG,30.58768,31.502,,Africa/Cairo
105.68.47.130,105.68.47.130,105.68.0.0,Sale,Rabat-Salé-Kénitra,MA,34.0531,-6.79846,,Africa/Casablanca
102.107.103.53,102.107.103.53,102.107.0.0,Sfax,Şafāqis,TN,34.74056,10.76028,,Africa/Tunis
104.212.68.20,104.212.68.20,104.212.0.0,Chennai,Tamil Nadu,IN,13.08784,80.27847,600001,Asia/Kolkata
106.101.0.104,106.101.0.107,106.101.0.0,Seoul,Seoul,KR,37.5676,126.9609,03745,Asia/Seoul
106.208.23.254,106.208.23.255,106.208.0.0,Nizāmābād,Telangana,IN,18.35599,78.33651,503112,Asia/Kolkata
101.119.101.132,101.119.101.133,101.119.0.0,Sydney,New South Wales,AU,-33.86785,151.20732,1001,Australia/Sydney
104.28.103.104,104.28.103.105,104.28.0.0,Des Moines,Iowa,US,41.60054,-93.60911,50307,America/Chicago
106.161.246.85,106.161.246.86,106.161.0.0,Tokyo,Tokyo,JP,35.6895,139.69171,101-8656,Asia/Tokyo
108.175.77.98,108.175.77.101,108.175.0.0,Salina,Kansas,US,38.84028,-97.61142,67402,America/Chicago
104.140.73.120,104.140.73.123,104.140.0.0,Phoenix,Arizona,US,33.44838,-112.07404,85001,America/Phoenix
107.126.33.62,107.126.33.63,107.126.0.0,Hazleton,Pennsylvania,US,40.95842,-75.97465,18201,America/New_York
106.161.103.176,106.161.103.191,106.161.0.0,Kikuchi,Kumamoto,JP,32.9515,130.8237,861-1312,Asia/Tokyo
107.85.78.0,107.85.78.127,107.85.0.0,Sugar Notch,Pennsylvania,US,41.19703,-75.92825,18706,America/New_York
103.171.213.250,103.171.213.250,103.171.0.0,Tachilek,Shan,MM,20.4475,99.88083,,Asia/Yangon
104.6.245.0,104.6.245.255,104.6.0.0,Pahokee,Florida,US,26.82006,-80.66534,33476,America/New_York
103.169.214.201,103.169.214.201,103.169.0.0,Kānnangād,Kerala,IN,12.30814,75.10632,671531,Asia/Kolkata
103.141.146.0,103.141.147.255,103.141.0.0,Tokyo,Tokyo,JP,35.6895,139.69171,101-8656,Asia/Tokyo
101.167.21.14,101.167.21.15,101.167.0.0,Townsville,Queensland,AU,-19.26639,146.80569,4810,Australia/Brisbane
106.200.119.208,106.200.119.239,106.200.0.0,Pune,Maharashtra,IN,18.51957,73.85535,411001,Asia/Kolkata
105.109.25.215,105.109.25.215,105.109.0.0,Constantine,Constantine,DZ,36.365,6.61472,04011,Africa/Algiers
106.147.98.88,106.147.98.111,106.147.0.0,Nagoya,Aichi,JP,35.18147,136.90641,460-0002,Asia/Tokyo
103.144.174.0,103.144.174.63,103.144.0.0,Batam,Riau,ID,1.14937,104.02491,,Asia/Jakarta
102.107.50.102,102.107.50.102,102.107.0.0,Sfax,Şafāqis,TN,34.74056,10.76028,,Africa/Tunis
1.183.228.229,1.183.228.229,1.183.0.0,Shanghai,Shanghai,CN,31.22222,121.45806,,Asia/Shanghai
1.32.68.32,1.32.68.63,1.32.0.0,Labis,Johor,MY,2.385,103.021,85300,Asia/Kuala_Lumpur
104.179.0.32,104.179.0.159,104.179.0.0,Brownsville,Texas,US,25.9337,-97.5174,78520,America/Chicago
101.180.70.30,101.180.70.30,101.180.0.0,Yarragundry,New South Wales,AU,-35.1541,147.2856,2661,Australia/Sydney
105.93.237.24,105.93.237.25,105.93.0.0,Al Khuşūş,Qalyubia,EG,30.15293,31.31501,,Africa/Cairo
103.105.103.96,103.105.103.103,103.105.0.0,Hyderābād,Telangana,IN,17.38405,78.45636,500001,Asia/Kolkata
108.67.107.48,108.67.107.48,108.67.0.0,Liberty,Illinois,US,39.87949,-91.10792,62347,America/Chicago
103.18.112.0,103.18.115.255,103.18.0.0,Brisbane,Queensland,AU,-27.46794,153.02809,4000,Australia/Brisbane
101.98.203.16,101.98.203.31,101.98.0.0,Christchurch,Canterbury,NZ,-43.555,172.6614,8145,Pacific/Auckland
106.123.48.34,106.123.48.35,106.123.0.0,Beijing,Beijing,CN,39.9075,116.39723,,Asia/Shanghai
108.57.50.232,108.57.50.232,108.57.0.0,Sunbury,Pennsylvania,US,40.86259,-76.79441,17801,America/New_York
108.235.93.32,108.235.93.53,108.235.0.0,Norman,Oklahoma,US,35.199,-97.4841,73072,America/Chicago
106.181.143.56,106.181.143.71,106.181.0.0,Tokyo,Tokyo,JP,35.7827,139.8061,121-0076,Asia/Tokyo
1.156.27.178,1.156.27.185,1.156.0.0,Sydney,New South Wales,AU,-33.86785,151.20732,1001,Australia/Sydney
101.173.122.0,101.173.127.255,101.173.0.0,Melbourne,Victoria,AU,-37.814,144.96332,3000,Australia/Melbourne
108.214.193.194,108.214.193.203,108.214.0.0,Austin,Texas,US,30.3471,-97.7609,78731,America/Chicago
104.129.127.18,104.129.127.19,104.129.0.0,Mont-Laurier,Quebec,CA,46.55011,-75.4993,J9L,America/Toronto
105.109.108.5,105.109.108.7,105.109.0.0,Constantine,Constantine,DZ,36.365,6.61472,04011,Africa/Algiers
1.209.10.100,1.209.10.101,1.209.0.0,Seongnam-si,Gyeonggi-do,KR,37.43861,127.13778,13246,Asia/Seoul
101.56.94.132,101.56.94.132,101.56.0.0,Lecce,Apulia,IT,40.35481,18.17244,73100,Europe/Rome
104.169.4.176,104.169.4.207,104.169.0.0,Springfield,West Virginia,US,39.45065,-78.69363,26763,America/New_York
104.3.169.0,104.3.169.255,104.3.0.0,St. Louis,Missouri,US,38.6445,-90.2544,63108,America/Chicago
1.101.131.64,1.101.133.79,1.101.0.0,Seoul,Seoul,KR,37.566,126.9784,03141,Asia/Seoul
106.226.206.185,106.226.206.185,106.226.0.0,Beijing,Beijing,CN,39.9075,116.39723,,Asia/Shanghai
106.214.213.229,106.214.213.235,106.214.0.0,Palwal,Haryana,IN,28.14469,77.32546,121102,Asia/Kolkata
1.53.154.208,1.53.154.215,1.53.0.0,Rạch Giá,Kiến Giang,VN,10.01245,105.08091,91150,Asia/Ho_Chi_Minh
106.161.98.92,106.161.98.93,106.161.0.0,Kyoto,Kyoto,JP,35.02107,135.75385,602-0054,Asia/Tokyo
103.223.8.232,103.223.8.255,103.223.0.0,Hoshiārpur,Punjab,IN,31.53723,75.91269,144210,Asia/Kolkata
106.69.243.52,106.69.243.67,106.69.0.0,Perth,Western Australia,AU,-31.80035,115.7952,6026,Australia/Perth
104.2.222.0,104.2.222.53,104.2.0.0,Jacksonville,Florida,US,30.1459,-81.5739,32258,America/New_York
101.56.60.153,101.56.60.170,101.56.0.0,Milan,Lombardy,IT,45.46427,9.18951,20121,Europe/Rome
104.247.145.65,104.247.145.65,104.247.0.0,Visalia,California,US,36.33023,-119.29206,93278,America/Los_Angeles
106.207.52.96,106.207.52.111,106.207.0.0,Gaya,Bihar,IN,24.79686,85.00385,823002,Asia/Kolkata
102.106.209.58,102.106.209.58,102.106.0.0,Sfax,Şafāqis,TN,34.74056,10.76028,,Africa/Tunis
101.175.93.115,101.175.93.115,101.175.0.0,Harrington,New South Wales,AU,-31.88306,152.65924,2427,Australia/Sydney
1.120.129.150,1.120.129.151,1.120.0.0,Brisbane,Queensland,AU,-27.46794,153.02809,4000,Australia/Brisbane
108.122.94.0,108.122.94.31,108.122.0.0,Bellevue,Washington,US,47.5614,-122.1552,98006,America/Los_Angeles
103.121.190.214,103.121.190.219,103.121.0.0,Mittakpheap,Preah Sihanouk,KH,10.62268,103.52473,,Asia/Phnom_Penh
103.143.146.0,103.143.147.255,103.143.0.0,Mumbai,Maharashtra,IN,19.07283,72.88261,400070,Asia/Kolkata
103.180.139.28,103.180.139.29,103.180.0.0,Ho Chi Minh City,Ho Chi Minh,VN,10.82302,106.62965,71606,Asia/Ho_Chi_Minh
106.133.111.64,106.133.111.87,106.133.0.0,Osaka,Ōsaka,JP,34.6809,135.4944,550-0011,Asia/Tokyo
102.223.124.52,102.223.124.57,102.223.0.0,Thulamahashi,Limpopo,ZA,-24.72459,31.19939,1365,Africa/Johannesburg
103.21.133.198,103.21.133.198,103.21.0.0,Newcastle,New South Wales,AU,-32.92953,151.7801,2300,Australia/Sydney
1.52.97.118,1.52.97.119,1.52.0.0,Phan Thiết,Bình Thuận,VN,10.92889,108.10208,77150,Asia/Ho_Chi_Minh
106.193.106.96,106.193.106.127,106.193.0.0,Tāsgaon,Maharashtra,IN,17.6738,75.5275,415411,Asia/Kolkata
107.145.72.188,107.145.72.191,107.145.0.0,Fanning Springs,Florida,US,29.59079,-82.92929,32693,America/New_York
101.56.120.229,101.56.120.240,101.56.0.0,Florence,Tuscany,IT,43.77925,11.24626,50100,Europe/Rome
106.79.199.74,106.79.199.74,106.79.0.0,Kota,Rajasthan,IN,25.18254,75.83907,322243,Asia/Kolkata
108.170.235.12,108.170.235.12,108.170.0.0,Mountain View,California,US,37.4056,-122.0775,94043,America/Los_Angeles
103.9.159.154,103.9.159.183,103.9.0.0,Hanoi,Hanoi,VN,21.0245,105.84117,10000,Asia/Bangkok
107.212.32.0,107.212.32.169,107.212.0.0,Crawfordsville,Indiana,US,40.04115,-86.87445,47933,America/Indiana/Indianapolis
1.4.153.170,1.4.153.170,1.4.0.0,Khon Kaen,Khon Kaen,TH,16.44671,102.833,40140,Asia/Bangkok
101.109.121.16,101.109.121.31,101.109.0.0,Bang Lamung,Chon Buri,TH,13.04704,100.92891,20150,Asia/Bangkok
108.198.61.0,108.198.61.255,108.198.0.0,Miami,Florida,US,25.7341,-80.4068,33175,America/New_York
106.66.118.9,106.66.118.9,106.66.0.0,Pune,Maharashtra,IN,18.51957,73.85535,411001,Asia/Kolkata
1.40.55.144,1.40.55.151,1.40.0.0,Coonabarabran,New South Wales,AU,-31.27734,149.27904,2357,Australia/Sydney
104.143.70.56,104.143.70.60,104.143.0.0,Summit Park,Utah,US,40.74578,-111.61159,84098,America/Denver
101.191.225.2,101.191.225.2,101.191.0.0,Kincumber,New South Wales,AU,-33.4313,151.43718,2260,Australia/Sydney
105.244.41.88,105.244.41.89,105.244.0.0,Tongaat Beach,KwaZulu-Natal,ZA,-29.61376,31.15281,4380,Africa/Johannesburg
105.185.8.88,105.185.8.89,105.185.0.0,Johannesburg,Gauteng,ZA,-26.20227,28.04363,2041,Africa/Johannesburg
103.90.229.184,103.90.229.187,103.90.0.0,Ðà Lạt,Lâm Đồng,VN,11.94646,108.44193,66150,Asia/Ho_Chi_Minh
105.244.184.16,105.244.184.39,105.244.0.0,Johannesburg,Gauteng,ZA,-26.20227,28.04363,2041,Africa/Johannesburg
101.187.109.88,101.187.109.151,101.187.0.0,Brisbane,Queensland,AU,-27.56695,153.1371,4156,Australia/Brisbane
102.185.6.119,102.185.6.120,102.185.0.0,Zagazig,Sharqia,EG,30.58768,31.502,,Africa/Cairo
1.41.255.0,1.41.255.255,1.41.0.0,Sydney,New South Wales,AU,-33.95235,151.14905,2216,Australia/Sydney
1.2.136.208,1.2.136.215,1.2.0.0,Seka,Bueng Kan,TH,17.92851,103.95519,43150,Asia/Bangkok
106.131.87.57,106.131.87.61,106.131.0.0,Osaka,Ōsaka,JP,34.69374,135.50218,543-0062,Asia/Tokyo
104.235.0.112,104.235.0.127,104.235.0.0,Delano,Minnesota,US,45.04191,-93.78913,55328,America/Chicago
105.160.112.0,105.160.112.3,105.160.0.0,Mombasa,Mombasa,KE,-4.05466,39.66359,,Africa/Nairobi
108.116.244.56,108.116.244.63,108.116.0.0,North River Shores,Florida,US,27.21755,-80.26977,34994,America/New_York
101.167.14.92,101.167.14.95,101.167.0.0,Cairns,Queensland,AU,-16.92366,145.76613,4870,Australia/Brisbane
104.187.255.0,104.187.255.255,104.187.0.0,Plano,Texas,US,33.0752,-96.7843,75024,America/Chicago
1.24.253.160,1.24.253.169,1.24.0.0,Tianjin,Tianjin,CN,39.14222,117.17667,,Asia/Shanghai
103.78.142.200,103.78.142.207,103.78.0.0,Mataram,West Nusa Tenggara,ID,-8.58333,116.11667,,Asia/Makassar
103.40.100.0,103.40.101.217,103.40.0.0,Hong Kong,Central and Western,HK,22.27832,114.17469,,Asia/Hong_Kong
103.153.208.32,103.153.208.35,103.153.0.0,Anandnagar,Uttar Pradesh,IN,27.10062,83.27156,273155,Asia/Kolkata
102.106.151.50,102.106.151.52,102.106.0.0,Sfax,Şafāqis,TN,34.74056,10.76028,,Africa/Tunis
107.144.76.104,107.144.76.111,107.144.0.0,Largo,Florida,US,27.8802,-82.7534,33773,America/New_York
105.109.28.170,105.109.28.170,105.109.0.0,Constantine,Constantine,DZ,36.365,6.61472,04011,Africa/Algiers
104.158.141.40,104.158.141.59,104.158.0.0,Midland,Ontario,CA,44.7501,-79.88296,L4R,America/Toronto
107.122.109.114,107.122.109.115,107.122.0.0,Tampa,Florida,US,27.94752,-82.45843,33606,America/New_York
106.214.204.214,106.214.204.215,106.214.0.0,Delhi,Delhi,IN,28.6453,77.2128,110004,Asia/Kolkata
104.254.97.164,104.254.97.168,104.254.0.0,Austin,Texas,US,30.26715,-97.74306,78701,America/Chicago
100.10.56.0,100.10.56.255,100.10.0.0,Providence,Rhode Island,US,41.82,-71.4158,02903,America/New_York
106.132.169.146,106.132.169.147,106.132.0.0,Sapporo,Hokkaido,JP,43.0338,141.3817,062-8609,Asia/Tokyo
108.57.51.76,108.57.51.79,108.57.0.0,Sunbury,Pennsylvania,US,40.86259,-76.79441,17801,America/New_York
101.180.25.144,101.180.25.167,101.180.0.0,Sydney,New South Wales,AU,-33.7958,151.2746,2094,Australia/Sydney
101.187.141.16,101.187.141.23,101.187.0.0,Maryborough,Queensland,AU,-25.54073,152.70493,4650,Australia/Brisbane
102.168.151.79,102.168.151.79,102.168.0.0,Sfax,Şafāqis,TN,34.74056,10.76028,,Africa/Tunis
1.54.7.144,1.54.7.145,1.54.0.0,Cái Tàu Hạ,Đồng Tháp,VN,10.25973,105.87044,81906,Asia/Ho_Chi_Minh
106.197.80.156,106.197.80.157,106.197.0.0,Salem,Tamil Nadu,IN,11.6755,78.1395,636004,Asia/Kolkata
104.14.96.0,104.14.96.59,104.14.0.0,Jackson,Mississippi,US,32.3739,-90.1293,39211,America/Chicago
1.246.249.0,1.246.249.255,1.246.0.0,Chinch'ŏn,North Chungcheong,KR,36.8996,127.5357,27874,Asia/Seoul
1.158.106.108,1.158.106.111,1.158.0.0,Wangaratta,Victoria,AU,-36.36197,146.31057,3677,Australia/Melbourne
1.195.220.10,1.195.220.11,1.195.0.0,Beijing,Beijing,CN,39.9075,116.39723,,Asia/Shanghai
103.170.254.12,103.170.254.15,103.170.0.0,Huế,Thừa Thiên-Huế,VN,16.4619,107.59546,49198,Asia/Bangkok
1.183.231.42,1.183.231.47,1.183.0.0,Guangzhou,Guangdong,CN,23.11667,113.25,,Asia/Shanghai
107.128.4.156,107.128.4.157,107.128.0.0,San Antonio,Texas,US,29.42412,-98.49363,78205,America/Chicago
107.198.87.90,107.198.87.91,107.198.0.0,Petaluma,California,US,38.23242,-122.63665,94953,America/Los_Angeles
106.205.81.124,106.205.81.124,106.205.0.0,Bengaluru,Karnataka,IN,12.97194,77.59369,560002,Asia/Kolkata
102.168.224.210,102.168.224.210,102.168.0.0,Sfax,Şafāqis,TN,34.74056,10.76028,,Africa/Tunis
1.225.11.0,1.225.11.255,1.225.0.0,Seoul,Seoul,KR,37.566,126.9784,03141,Asia/Seoul
108.210.44.0,108.210.44.255,108.210.0.0,Austin,Texas,US,30.4036,-97.7526,78759,America/Chicago
106.70.59.16,106.70.59.19,106.70.0.0,Gold Coast,Queensland,AU,-28.00029,153.43088,4217,Australia/Brisbane
107.12.75.112,107.12.75.115,107.12.0.0,North Charleston,South Carolina,US,32.9336,-80.1026,29420,America/New_York
103.98.86.0,103.98.86.255,103.98.0.0,Brisbane,Queensland,AU,-27.63123,153.0556,4116,Australia/Brisbane
102.107.33.106,102.107.33.106,102.107.0.0,Sousse,Sūsah,TN,35.82539,10.63699,,Africa/Tunis
104.239.26.192,104.239.26.207,104.239.0.0,Santa Monica,California,US,34.01949,-118.49138,90401,America/Los_Angeles
102.169.197.143,102.169.197.144,102.169.0.0,Sousse,Sūsah,TN,35.82539,10.63699,,Africa/Tunis
108.207.228.116,108.207.228.117,108.207.0.0,Pratt,Kansas,US,37.64391,-98.73759,67124,America/Chicago
102.45.138.34,102.45.138.45,102.45.0.0,Al Maḩallah al Kubrá,Gharbia,EG,30.97063,31.1669,,Africa/Cairo
102.109.192.213,102.109.192.213,102.109.0.0,Sfax,Şafāqis,TN,34.74056,10.76028,,Africa/Tunis
1.55.206.228,1.55.206.229,1.55.0.0,Nam Định,Nam Định,VN,20.43389,106.17729,07150,Asia/Bangkok
101.180.227.160,101.180.227.183,101.180.0.0,Melbourne,Victoria,AU,-37.814,144.96332,3000,Australia/Melbourne
106.165.160.232,106.165.160.239,106.165.0.0,Kukichūō,Saitama,JP,36.06739,139.67498,346-0003,Asia/Tokyo
101.162.68.140,101.162.68.143,101.162.0.0,Sharon,Queensland,AU,-24.87593,152.26994,4670,Australia/Brisbane
108.234.249.36,108.234.249.255,108.234.0.0,Fresno,California,US,36.7377,-119.7843,93721,America/Los_Angeles
101.26.51.0,101.26.51.255,101.26.0.0,Tianjin,Tianjin,CN,39.14222,117.17667,,Asia/Shanghai
101.12.18.232,101.12.18.239,101.12.0.0,Taipei,Taiwan,TW,25.04776,121.53185,,Asia/Taipei
101.128.215.208,101.128.215.223,101.128.0.0,Kasai,Hyōgo,JP,34.9008,134.8483,675-2243,Asia/Tokyo
106.207.150.208,106.207.150.209,106.207.0.0,Pāli,Rajasthan,IN,25.77276,73.32335,306401,Asia/Kolkata
101.174.82.152,101.174.82.155,101.174.0.0,Bowral,New South Wales,AU,-34.4775,150.4204,2576,Australia/Sydney
101.167.22.98,101.167.22.98,101.167.0.0,Mount Peter,Queensland,AU,-17.04513,145.73982,4869,Australia/Brisbane
106.202.161.128,106.202.161.143,106.202.0.0,Ahmadnagar,Maharashtra,IN,19.09457,74.73843,413201,Asia/Kolkata
108.66.42.22,108.66.42.25,108.66.0.0,Coal Grove,Ohio,US,38.50341,-82.64711,45638,America/New_York
102.170.40.251,102.170.40.253,102.170.0.0,Sfax,Şafāqis,TN,34.74056,10.76028,,Africa/Tunis
108.243.233.152,108.243.233.159,108.243.0.0,Okemah,Oklahoma,US,35.43259,-96.30501,74859,America/Chicago
101.161.78.120,101.161.78.121,101.161.0.0,Lucknow,Victoria,AU,-37.81667,147.65,3875,Australia/Melbourne
102.169.33.251,102.169.34.0,102.169.0.0,Sousse,Sūsah,TN,35.82539,10.63699,,Africa/Tunis
104.249.218.222,104.249.218.223,104.249.0.0,Oak Bay,British Columbia,CA,48.44964,-123.3026,V8R,America/Vancouver
106.196.116.12,106.196.116.15,106.196.0.0,Chandīgarh,Chandigarh,IN,30.7325,76.7341,160030,Asia/Kolkata
101.178.213.0,101.178.213.31,101.178.0.0,Crookwell,New South Wales,AU,-34.45925,149.47137,2583,Australia/Sydney
105.247.112.64,105.247.112.127,105.247.0.0,Kimberley,Northern Cape,ZA,-28.7333,24.7667,8301,Africa/Johannesburg
103.43.17.243,103.43.17.243,103.43.0.0,Hong Kong,Central and Western,HK,22.27832,114.17469,,Asia/Hong_Kong
107.141.43.48,107.141.43.51,107.141.0.0,Bartlesville,Oklahoma,US,36.74731,-95.98082,74005,America/Chicago
101.177.180.38,101.177.180.79,101.177.0.0,Brisbane,Queensland,AU,-27.50873,152.91892,4069,Australia/Brisbane
107.196.151.0,107.196.151.127,107.196.0.0,Washington,"Washington, D.C.",US,38.89511,-77.03637,20004,America/New_York
102.106.180.247,102.106.180.247,102.106.0.0,Sfax,Şafāqis,TN,34.74056,10.76028,,Africa/Tunis
107.1.243.88,107.1.243.88,107.1.0.0,Felida,Washington,US,45.70956,-122.70732,98685,America/Los_Angeles
1.157.236.100,1.157.236.101,1.157.0.0,Charles Sturt University,New South Wales,AU,-35.06075,147.35424,2678,Australia/Sydney
104.219.42.16,104.219.42.23,104.219.0.0,Arlington Heights,Illinois,US,42.08836,-87.98063,60006,America/Chicago
101.190.86.200,101.190.86.255,101.190.0.0,Sydney,New South Wales,AU,-33.7833,150.8456,2766,Australia/Sydney
1.196.43.64,1.196.43.143,1.196.0.0,Hangzhou,Zhejiang,CN,30.29365,120.16142,,Asia/Shanghai
101.190.235.216,101.190.235.239,101.190.0.0,Sydney,New South Wales,AU,-33.74593,150.81132,2770,Australia/Sydney
108.175.178.38,108.175.178.39,108.175.0.0,Lumberton,North Carolina,US,34.61834,-79.01045,28358,America/New_York
102.106.82.196,102.106.82.196,102.106.0.0,Sfax,Şafāqis,TN,34.74056,10.76028,,Africa/Tunis
104.28.208.119,104.28.208.125,104.28.0.0,Toronto,Ontario,CA,43.70011,-79.4163,M5A,America/Toronto
102.109.5.244,102.109.5.244,102.109.0.0,Sfax,Şafāqis,TN,34.74056,10.76028,,Africa/Tunis
103.243.60.0,103.243.60.255,103.243.0.0,Delhi,Delhi,IN,28.65195,77.23149,110001,Asia/Kolkata
1.52.240.13,1.52.240.13,1.52.0.0,Qui Nhon,Bình Định,VN,13.77648,109.22367,55117,Asia/Ho_Chi_Minh
103.190.140.0,103.190.141.255,103.190.0.0,Indore,Madhya Pradesh,IN,22.7233,75.87,452001,Asia/Kolkata
106.212.75.120,106.212.75.131,106.212.0.0,Lucknow,Uttar Pradesh,IN,26.9084,80.9505,226031,Asia/Kolkata
101.248.172.96,101.248.173.31,101.248.0.0,Nagqu,Tibet,CN,31.47678,92.05729,,Asia/Shanghai
101.173.159.42,101.173.159.43,101.173.0.0,Axedale,Victoria,AU,-36.8,144.51667,3551,Australia/Melbourne
101.103.0.31,101.103.0.33,101.103.0.0,Adelaide,South Australia,AU,-34.74732,138.58428,5110,Australia/Adelaide
1.15.42.0,1.15.42.255,1.15.0.0,Beijing,Beijing,CN,39.9075,116.39723,,Asia/Shanghai
1.222.98.168,1.222.98.171,1.222.0.0,Cheonan,Chungcheongnam-do,KR,36.8065,127.1522,31126,Asia/Seoul
101.191.232.36,101.191.232.39,101.191.0.0,Glendon,New South Wales,AU,-32.58428,151.2856,2330,Australia/Sydney
102.109.165.69,102.109.165.69,102.109.0.0,Sfax,Şafāqis,TN,34.74056,10.76028,,Africa/Tunis
107.174.48.3,107.174.48.3,107.174.0.0,Los Angeles,California,US,34.05223,-118.24368,90009,America/Los_Angeles
106.133.103.85,106.133.103.88,106.133.0.0,Yokohama,Kanagawa,JP,35.43333,139.65,220-8588,Asia/Tokyo
106.131.83.208,106.131.83.213,106.131.0.0,Osaka,Ōsaka,JP,34.69374,135.50218,543-0062,Asia/Tokyo
1.249.33.0,1.249.33.255,1.249.0.0,Gwangju,Gwangju,KR,35.2116,126.8591,61084,Asia/Seoul
102.97.120.0,102.97.122.255,102.97.0.0,Casablanca,Casablanca-Settat,MA,33.58831,-7.61138,,Africa/Casablanca
108.122.195.64,108.122.195.95,108.122.0.0,Mancelona,Michigan,US,44.90223,-85.06088,49659,America/Detroit
108.175.72.52,108.175.72.53,108.175.0.0,Denver,Colorado,US,39.7312,-104.9129,80220,America/Denver
100.36.111.0,100.36.111.255,100.36.0.0,Germantown,Maryland,US,39.1355,-77.2822,20874,America/New_York
1.24.229.49,1.24.229.50,1.24.0.0,Qingdao,Shandong,CN,36.06488,120.38042,,Asia/Shanghai
101.191.85.200,101.191.85.207,101.191.0.0,Sydney,New South Wales,AU,-33.9038,151.1398,2203,Australia/Sydney
101.185.229.48,101.185.229.63,101.185.0.0,Rockingham,Western Australia,AU,-32.31335,115.73845,6169,Australia/Perth
1.187.120.24,1.187.120.24,1.187.0.0,Delhi,Delhi,IN,28.65195,77.23149,110001,Asia/Kolkata
102.109.117.145,102.109.117.145,102.109.0.0,Sousse,Sūsah,TN,35.82539,10.63699,,Africa/Tunis
103.112.44.0,103.112.44.255,103.112.0.0,Jakarta,Jakarta,ID,-6.21462,106.84513,,Asia/Jakarta
107.1.214.0,107.1.214.18,107.1.0.0,Atlanta,Georgia,US,33.749,-84.38798,30302,America/New_York
105.246.116.0,105.246.116.15,105.246.0.0,Empangeni,KwaZulu-Natal,ZA,-28.75,31.9,3910,Africa/Johannesburg
107.18.87.0,107.18.87.127,107.18.0.0,Brevard,North Carolina,US,35.2599,-82.6695,28768,America/New_York
106.66.104.35,106.66.104.35,106.66.0.0,Chennai,Tamil Nadu,IN,13.08784,80.27847,600001,Asia/Kolkata
103.17.153.0,103.17.153.127,103.17.0.0,Melbourne,Victoria,AU,-37.86153,144.97807,3182,Australia/Melbourne
1.254.61.64,1.254.61.71,1.254.0.0,Kimhae,Gyeongsangnam-do,KR,35.23417,128.88111,50842,Asia/Seoul
100.239.190.0,100.239.190.127,100.239.0.0,Morris Heights,New York,US,40.8376,-73.9216,10452,America/New_York
101.190.99.0,101.190.99.23,101.190.0.0,Sydney,New South Wales,AU,-33.8883,151.1227,1800,Australia/Sydney
101.189.14.42,101.189.14.47,101.189.0.0,Millendon,Western Australia,AU,-31.80775,116.0367,6056,Australia/Perth
104.235.94.98,104.235.94.103,104.235.0.0,Hinckley,Illinois,US,41.76892,-88.64091,60520,America/Chicago
106.64.121.96,106.64.121.107,106.64.0.0,Taipei,Taiwan,TW,25.04776,121.53185,,Asia/Taipei
1.28.61.46,1.28.61.47,1.28.0.0,Tianjin,Tianjin,CN,39.14222,117.17667,,Asia/Shanghai
105.243.254.16,105.243.254.24,105.243.0.0,Cape Town,Western Cape,ZA,-33.92584,18.42322,7945,Africa/Johannesburg
108.90.122.0,108.90.122.255,108.90.0.0,Los Angeles,California,US,34.0448,-118.2434,90013,America/Los_Angeles
104.235.86.40,104.235.86.53,104.235.0.0,Belvidere,Illinois,US,42.26391,-88.84427,61008,America/Chicago
1.74.200.160,1.74.201.95,1.74.0.0,Tokyo,Tokyo,JP,35.691,139.7679,101-0047,Asia/Tokyo
1.46.17.236,1.46.17.237,1.46.0.0,Rattaphum,Songkhla,TH,7.13478,100.25647,90110,Asia/Bangkok
106.212.28.91,106.212.28.93,106.212.0.0,Jammu,Jammu and Kashmir,IN,32.73528,74.86167,180002,Asia/Kolkata
106.165.10.10,106.165.10.39,106.165.0.0,Tomakomai,Hokkaido,JP,42.63694,141.60333,053-0011,Asia/Tokyo
101.49.13.113,101.49.13.113,101.49.0.0,Richmond,Virginia,US,37.55376,-77.46026,23173,America/New_York
106.220.103.34,106.220.103.35,106.220.0.0,Chandīgarh,Chandigarh,IN,30.73629,76.7884,160001,Asia/Kolkata
102.169.127.133,102.169.127.144,102.169.0.0,Sfax,Şafāqis,TN,34.74056,10.76028,,Africa/Tunis
1.28.160.96,1.28.160.111,1.28.0.0,Qingdao,Shandong,CN,36.06488,120.38042,,Asia/Shanghai
1.114.0.0,1.114.11.255,1.114.0.0,Hatsudai,Tokyo,JP,35.65,139.7333,105-0022,Asia/Tokyo
103.12.163.93,103.12.163.94,103.12.0.0,Mittakpheap,Preah Sihanouk,KH,10.62268,103.52473,,Asia/Phnom_Penh
106.66.107.108,106.66.107.114,106.66.0.0,Pune,Maharashtra,IN,18.51957,73.85535,411001,Asia/Kolkata
1.228.147.0,1.228.147.255,1.228.0.0,Cheonan,Chungcheongnam-do,KR,36.8362,127.1363,31100,Asia/Seoul
105.160.56.8,105.160.56.15,105.160.0.0,Maua,Meru,KE,0.2332,37.94086,,Africa/Nairobi
106.184.156.254,106.184.156.254,106.184.0.0,Tokyo,Tokyo,JP,35.6895,139.69171,101-8656,Asia/Tokyo
102.109.2.105,102.109.2.110,102.109.0.0,Sousse,Sūsah,TN,35.82539,10.63699,,Africa/Tunis
102.145.102.128,102.145.165.255,102.145.0.0,Lusaka,Lusaka,ZM,-15.40669,28.28713,,Africa/Lusaka
103.56.158.208,103.56.158.210,103.56.0.0,Hanoi,Hanoi,VN,21.0245,105.84117,10000,Asia/Bangkok
106.208.91.176,106.208.91.179,106.208.0.0,Chennai,Tamil Nadu,IN,13.0974,80.195,600101,Asia/Kolkata
102.170.119.135,102.170.119.135,102.170.0.0,Sfax,Şafāqis,TN,34.74056,10.76028,,Africa/Tunis
102.191.169.0,102.191.169.63,102.191.0.0,Aswan,Aswan,EG,24.09082,32.89942,,Africa/Cairo
104.249.211.80,104.249.211.143,104.249.0.0,Sylvan Lake,Alberta,CA,52.311,-114.08375,T4S,America/Edmonton
106.71.48.128,106.71.48.131,106.71.0.0,Hervey Bay,Queensland,AU,-25.28762,152.76936,4655,Australia/Brisbane
106.207.30.96,106.207.30.103,106.207.0.0,Patna,Bihar,IN,25.59408,85.13563,800001,Asia/Kolkata
106.161.124.240,106.161.124.243,106.161.0.0,Kawasaki,Kanagawa,JP,36.1731,139.5373,348-0039,Asia/Tokyo
106.129.145.56,106.129.145.63,106.129.0.0,Kōriyama,Fukushima,JP,37.4341,140.3419,963-0551,Asia/Tokyo
106.184.120.128,106.184.120.255,106.184.0.0,Chikushino-shi,Fukuoka,JP,33.5032,130.5041,818-0054,Asia/Tokyo
103.107.98.45,103.107.98.50,103.107.0.0,Mānsa,Punjab,IN,29.98844,75.40167,151505,Asia/Kolkata
1.193.149.16,1.193.149.81,1.193.0.0,Hangzhou,Zhejiang,CN,30.29365,120.16142,,Asia/Shanghai
104.168.23.144,104.168.23.146,104.168.0.0,North Marysville,Washington,US,48.09927,-122.14875,98270,America/Los_Angeles
1.179.144.4,1.179.144.11,1.179.0.0,Krabi,Krabi,TH,8.07257,98.91052,81130,Asia/Bangkok
101.184.0.180,101.184.0.183,101.184.0.0,Bonny Hills,New South Wales,AU,-31.59061,152.83908,2445,Australia/Sydney
101.180.38.144,101.180.38.161,101.180.0.0,Sydney,New South Wales,AU,-33.74872,151.28088,2099,Australia/Sydney
108.123.163.0,108.123.163.127,108.123.0.0,Anaheim,California,US,33.83529,-117.9145,92805,America/Los_Angeles
106.35.119.128,106.35.119.255,106.35.0.0,Hangzhou,Zhejiang,CN,30.29365,120.16142,,Asia/Shanghai
108.170.231.94,108.170.231.95,108.170.0.0,Paris,Île-de-France,FR,48.85341,2.3488,75000,Europe/Paris
105.95.83.65,105.95.83.65,105.95.0.0,Cairo,Cairo,EG,30.06263,31.24967,,Africa/Cairo
101.116.219.240,101.116.219.255,101.116.0.0,Melbourne,Victoria,AU,-37.90273,145.10005,3166,Australia/Melbourne
101.176.99.116,101.176.99.116,101.176.0.0,Axedale,Victoria,AU,-36.8,144.51667,3551,Australia/Melbourne
108.39.164.72,108.39.164.81,108.39.0.0,Monaca,Pennsylvania,US,40.68729,-80.27145,15061,America/New_York
108.198.192.0,108.198.192.15,108.198.0.0,Biloxi,Mississippi,US,30.511,-88.9681,39532,America/Chicago
105.93.212.200,105.93.212.201,105.93.0.0,Banī Suwayf,Beni Suweif,EG,29.07441,31.09785,,Africa/Cairo
104.44.70.0,104.44.70.255,104.44.0.0,New Delhi,Delhi,IN,28.63576,77.22445,110001,Asia/Kolkata
103.147.127.135,103.147.127.151,103.147.0.0,Hanoi,Hanoi,VN,21.0245,105.84117,10000,Asia/Bangkok
100.168.68.0,100.168.68.127,100.168.0.0,San Diego,California,US,32.7454,-117.1272,92104,America/Los_Angeles
101.137.108.2,101.137.108.3,101.137.0.0,Pingtung,Taiwan,TW,22.67135,120.48814,,Asia/Taipei
108.232.120.128,108.232.120.144,108.232.0.0,Columbus,Ohio,US,39.96118,-82.99879,43215,America/New_York
106.129.149.24,106.129.149.35,106.129.0.0,Tokyo,Tokyo,JP,35.6895,139.69171,101-8656,Asia/Tokyo
101.136.241.240,101.136.241.243,101.136.0.0,Kaohsiung,Takao,TW,22.61626,120.31333,,Asia/Taipei
102.170.54.252,102.170.54.255,102.170.0.0,Sousse,Sūsah,TN,35.82539,10.63699,,Africa/Tunis
1.38.62.240,1.38.62.240,1.38.0.0,Dindigul,Tamil Nadu,IN,10.36896,77.98036,624002,Asia/Kolkata
101.189.199.70,101.189.199.70,101.189.0.0,Dagun,Queensland,AU,-26.31667,152.68333,4570,Australia/Brisbane
104.44.13.102,104.44.13.103,104.44.0.0,New York City,New York,US,40.71427,-74.00597,10004,America/New_York
104.247.147.11,104.247.147.11,104.247.0.0,Auberry,California,US,36.9938,-119.5268,93651,America/Los_Angeles
103.246.104.128,103.246.104.255,103.246.0.0,Hanoi,Hanoi,VN,21.0245,105.84117,10000,Asia/Bangkok
108.90.85.142,108.90.85.147,108.90.0.0,Cisco,Texas,US,32.38819,-98.97923,76437,America/Chicago
106.182.98.0,106.182.99.255,106.182.0.0,Tokyo,Tokyo,JP,35.6895,139.69171,101-8656,Asia/Tokyo
106.213.190.152,106.213.190.155,106.213.0.0,Surat,Gujarat,IN,21.19594,72.83023,395005,Asia/Kolkata
104.223.117.0,104.223.117.255,104.223.0.0,Minneapolis,Minnesota,US,44.97997,-93.26384,55401,America/Chicago
102.217.89.16,102.217.89.31,102.217.0.0,Swellendam,Western Cape,ZA,-34.0333,20.4333,6742,Africa/Johannesburg
101.180.236.232,101.180.236.239,101.180.0.0,Penguin,Tasmania,AU,-41.12258,146.07318,7316,Australia/Hobart
1.22.41.0,1.22.41.255,1.22.0.0,Varanasi,Uttar Pradesh,IN,25.3076,82.9933,221010,Asia/Kolkata
107.201.191.184,107.201.191.185,107.201.0.0,Indianapolis,Indiana,US,39.7851,-86.1595,46202,America/Indiana/Indianapolis
104.187.206.208,104.187.206.211,104.187.0.0,Winnemucca,Nevada,US,40.97296,-117.73568,89445,America/Los_Angeles
103.219.200.0,103.219.203.255,103.219.0.0,Airoli,Maharashtra,IN,19.15096,72.99625,400708,Asia/Kolkata
108.103.248.128,108.103.248.255,108.103.0.0,Atlanta,Georgia,US,33.7278,-84.4232,30310,America/New_York
102.169.69.142,102.169.69.144,102.169.0.0,Sousse,Sūsah,TN,35.82539,10.63699,,Africa/Tunis
103.18.152.0,103.18.152.255,103.18.0.0,Gāndarbal,Jammu and Kashmir,IN,34.22619,74.77478,191201,Asia/Kolkata
107.5.108.226,107.5.108.229,107.5.0.0,Three Rivers,Michigan,US,41.94394,-85.63249,49093,America/Detroit
103.71.22.5,103.71.22.11,103.71.0.0,Kānker,Chhattisgarh,IN,20.27193,81.49177,494332,Asia/Kolkata
106.226.206.191,106.226.206.191,106.226.0.0,Beijing,Beijing,CN,39.9075,116.39723,,Asia/Shanghai
101.191.47.104,101.191.47.107,101.191.0.0,Wilberforce,New South Wales,AU,-33.56256,150.83784,2756,Australia/Sydney
1.52.110.232,1.52.110.235,1.52.0.0,Vũng Tàu,Bà Rịa-Vũng Tàu,VN,10.34599,107.08426,78254,Asia/Ho_Chi_Minh
104.240.46.122,104.240.46.123,104.240.0.0,Beclabito,New Mexico,US,36.84139,-109.01954,87420,America/Denver
106.226.166.18,106.226.166.21,106.226.0.0,Beijing,Beijing,CN,39.9075,116.39723,,Asia/Shanghai
102.53.94.80,102.53.94.80,102.53.0.0,Tétouan,Tanger-Tetouan-Al Hoceima,MA,35.57845,-5.36837,,Africa/Casablanca
107.184.20.144,107.184.20.255,107.184.0.0,Huntington Beach,California,US,33.721,-118.0033,92647,America/Los_Angeles
1.38.63.0,1.38.63.0,1.38.0.0,Dindigul,Tamil Nadu,IN,10.36896,77.98036,624002,Asia/Kolkata
1.244.31.212,1.244.31.215,1.244.0.0,Gangneung,Gangwon-do,KR,37.75266,128.87239,25458,Asia/Seoul
100.4.117.112,100.4.117.115,100.4.0.0,Suffolk,Virginia,US,36.72836,-76.58496,23434,America/New_York
101.49.25.189,101.49.25.189,101.49.0.0,Richmond,Virginia,US,37.55376,-77.46026,23173,America/New_York
103.41.206.16,103.41.206.17,103.41.0.0,Bandung,West Java,ID,-6.92222,107.60694,,Asia/Jakarta
107.95.10.0,107.95.10.127,107.95.0.0,Los Angeles,California,US,34.05223,-118.24368,90009,America/Los_Angeles
1.245.236.0,1.245.236.255,1.245.0.0,Daejeon,Daejeon,KR,36.3101,127.367,35348,Asia/Seoul
108.77.148.34,108.77.148.63,108.77.0.0,Tulsa,Oklahoma,US,36.0605,-95.9452,74136,America/Chicago
102.0.37.128,102.0.37.191,102.0.0.0,Mombasa,Mombasa,KE,-4.05466,39.66359,,Africa/Nairobi
106.42.55.0,106.42.55.63,106.42.0.0,Hangzhou,Zhejiang,CN,30.29365,120.16142,,Asia/Shanghai
103.151.122.128,103.151.122.131,103.151.0.0,Hanoi,Hanoi,VN,21.0245,105.84117,10000,Asia/Bangkok
101.49.42.97,101.49.42.97,101.49.0.0,Alexandria,Virginia,US,38.80484,-77.04692,22314,America/New_York
105.89.218.90,105.89.218.90,105.89.0.0,Cairo,Cairo,EG,30.06263,31.24967,,Africa/Cairo
106.220.99.2,106.220.99.2,106.220.0.0,Ludhiāna,Punjab,IN,30.91204,75.85379,141120,Asia/Kolkata
106.77.96.226,106.77.96.229,106.77.0.0,Mumbai,Maharashtra,IN,19.07283,72.88261,400070,Asia/Kolkata
102.189.48.0,102.189.50.255,102.189.0.0,Ţanţā,Gharbia,EG,30.78847,31.00192,,Africa/Cairo
103.78.194.0,103.78.194.255,103.78.0.0,Melbourne,Victoria,AU,-37.83385,144.95945,3205,Australia/Melbourne
101.136.28.128,101.136.28.135,101.136.0.0,Kaohsiung,Takao,TW,22.61626,120.31333,,Asia/Taipei
101.185.217.76,101.185.217.163,101.185.0.0,Perth,Western Australia,AU,-31.94325,115.86335,6003,Australia/Perth
106.171.7.72,106.171.7.79,106.171.0.0,Niigata,Niigata,JP,37.9137,139.0584,950-0901,Asia/Tokyo
101.137.169.80,101.137.169.97,101.137.0.0,Taipei,Taiwan,TW,25.04776,121.53185,,Asia/Taipei
107.218.194.96,107.218.194.99,107.218.0.0,Hanna City,Illinois,US,40.6917,-89.79511,61536,America/Chicago
101.137.137.16,101.137.137.20,101.137.0.0,Taichung,Taiwan,TW,24.1469,120.6839,,Asia/Taipei
1.187.47.0,1.187.47.175,1.187.0.0,Pune,Maharashtra,IN,18.51957,73.85535,411001,Asia/Kolkata
106.7.87.127,106.7.87.127,106.7.0.0,Fuzhou,Fujian,CN,26.07711,119.29153,,Asia/Shanghai
108.223.130.106,108.223.130.111,108.223.0.0,Royse City,Texas,US,32.97512,-96.33248,75189,America/Chicago
104.195.195.112,104.195.195.127,104.195.0.0,London,Ontario,CA,42.9546,-81.2735,N6J,America/Toronto
1.66.138.32,1.66.138.47,1.66.0.0,Abashiri,Hokkaido,JP,44.02127,144.26971,093-0031,Asia/Tokyo
101.176.203.252,101.176.203.255,101.176.0.0,West Wodonga,Victoria,AU,-36.12346,146.85193,3690,Australia/Melbourne
107.6.240.0,107.6.241.255,107.6.0.0,Los Angeles,California,US,34.05223,-118.24368,90009,America/Los_Angeles
1.1.140.18,1.1.140.18,1.1.0.0,Phatthalung,Phatthalung,TH,7.61786,100.07792,93000,Asia/Bangkok
107.92.63.128,107.92.63.159,107.92.0.0,Lockhart,Texas,US,29.88494,-97.67,78644,America/Chicago
101.182.118.120,101.182.118.143,101.182.0.0,Melbourne,Victoria,AU,-37.74798,145.07292,3084,Australia/Melbourne
105.66.4.160,105.66.4.167,105.66.0.0,Safi,Marrakesh-Safi,MA,32.29939,-9.23718,,Africa/Casablanca
106.246.172.188,106.246.172.191,106.246.0.0,Asan,Chungcheongnam-do,KR,36.78361,127.00417,31505,Asia/Seoul
100.14.101.32,100.14.101.239,100.14.0.0,Washington,"Washington, D.C.",US,38.9024,-76.9901,20002,America/New_York
104.161.129.107,104.161.129.108,104.161.0.0,Osaka,Ōsaka,JP,34.69374,135.50218,543-0062,Asia/Tokyo
101.136.78.73,101.136.78.73,101.136.0.0,Taichung,Taiwan,TW,24.1469,120.6839,,Asia/Taipei
102.109.70.122,102.109.70.122,102.109.0.0,Sfax,Şafāqis,TN,34.74056,10.76028,,Africa/Tunis
102.134.126.201,102.134.126.255,102.134.0.0,Johannesburg,Gauteng,ZA,-26.20227,28.04363,2041,Africa/Johannesburg
104.136.193.128,104.136.193.129,104.136.0.0,Crystal River,Florida,US,28.9584,-82.5993,34428,America/New_York
103.246.84.0,103.246.87.255,103.246.0.0,Olpād,Gujarat,IN,21.1941,72.5018,395001,Asia/Kolkata
105.161.145.177,105.161.145.177,105.161.0.0,Malindi,Kilifi,KE,-3.21799,40.11692,,Africa/Nairobi
103.145.149.128,103.145.149.159,103.145.0.0,Bitung,North Sulawesi,ID,1.44059,125.12824,,Asia/Makassar
104.159.200.224,104.159.200.231,104.159.0.0,Dardenne Prairie,Missouri,US,38.7695,-90.72902,63368,America/Chicago
103.27.226.15,103.27.226.15,103.27.0.0,Melbourne,Victoria,AU,-37.814,144.96332,3000,Australia/Melbourne
105.93.202.91,105.93.202.92,105.93.0.0,Cairo,Cairo,EG,30.06263,31.24967,,Africa/Cairo
105.109.103.87,105.109.103.90,105.109.0.0,Sétif,Sétif,DZ,36.19112,5.41373,19034,Africa/Algiers
108.225.210.76,108.225.210.103,108.225.0.0,San Francisco,California,US,37.77493,-122.41942,94102,America/Los_Angeles
101.119.84.107,101.119.84.108,101.119.0.0,Sydney,New South Wales,AU,-33.86785,151.20732,1001,Australia/Sydney
1.37.86.158,1.37.86.159,1.37.0.0,Catarman,Eastern Visayas,PH,12.4989,124.6377,6400,Asia/Manila
106.131.16.9,106.131.16.10,106.131.0.0,Osaka,Ōsaka,JP,34.69374,135.50218,543-0062,Asia/Tokyo
104.53.83.0,104.53.83.255,104.53.0.0,Reno,Nevada,US,39.5249,-119.9031,89523,America/Los_Angeles
101.138.169.148,101.138.169.148,101.138.0.0,Tainan,Taiwan,TW,22.99083,120.21333,,Asia/Taipei
108.204.163.16,108.204.163.23,108.204.0.0,Omaha,Texas,US,33.18068,-94.7441,75571,America/Chicago
102.168.226.158,102.168.226.160,102.168.0.0,Sousse,Sūsah,TN,35.82539,10.63699,,Africa/Tunis
104.52.178.0,104.52.178.223,104.52.0.0,Birmingham,Alabama,US,33.3967,-86.8346,35226,America/Chicago
105.96.92.80,105.96.92.87,105.96.0.0,Béchar,Béchar,DZ,31.61667,-2.21667,08004,Africa/Algiers
103.83.154.0,103.83.154.255,103.83.0.0,Damān,Dadra and Nagar Haveli and Daman and Diu,IN,20.41431,72.83236,396210,Asia/Kolkata
104.230.130.50,104.230.130.53,104.230.0.0,Paris,Kentucky,US,38.2098,-84.25299,40361,America/New_York
108.178.67.208,108.178.67.215,108.178.0.0,Plano,Texas,US,33.025,-96.7397,75075,America/Chicago
104.28.207.248,104.28.207.254,104.28.0.0,Jining,Shandong,CN,35.405,116.58139,,Asia/Shanghai
103.154.123.208,103.154.123.255,103.154.0.0,Jakarta,Jakarta,ID,-6.21462,106.84513,,Asia/Jakarta
101.112.173.56,101.112.173.87,101.112.0.0,Sydney,New South Wales,AU,-33.81,150.96309,2145,Australia/Sydney
102.170.181.65,102.170.181.65,102.170.0.0,Sfax,Şafāqis,TN,34.74056,10.76028,,Africa/Tunis
103.12.246.128,103.12.246.159,103.12.0.0,Jaipur,Rajasthan,IN,26.91962,75.78781,302001,Asia/Kolkata
106.202.153.64,106.202.153.95,106.202.0.0,Rasrā,Uttar Pradesh,IN,25.81346,84.10629,277401,Asia/Kolkata
108.95.127.198,108.95.127.199,108.95.0.0,Carrollton,Missouri,US,39.35835,-93.49577,64633,America/Chicago
106.76.247.92,106.76.247.102,106.76.0.0,Davangere,Karnataka,IN,14.46693,75.92694,577005,Asia/Kolkata
104.235.152.0,104.235.152.1,104.235.0.0,Saint Johns,Illinois,US,38.03088,-89.24092,62832,America/Chicago
106.204.247.116,106.204.247.116,106.204.0.0,Lucknow,Uttar Pradesh,IN,26.83928,80.92313,226004,Asia/Kolkata
101.190.220.170,101.190.220.171,101.190.0.0,Silverwater,New South Wales,AU,-33.066,151.43135,2265,Australia/Sydney
108.239.102.128,108.239.102.131,108.239.0.0,Camden,Arkansas,US,33.5948,-92.8513,71701,America/Chicago
101.188.139.212,101.188.139.215,101.188.0.0,Beaufort,Victoria,AU,-37.42996,143.38347,3373,Australia/Melbourne
104.57.136.0,104.57.137.175,104.57.0.0,Rome,Georgia,US,34.25704,-85.16467,30161,America/New_York
1.47.144.128,1.47.144.143,1.47.0.0,Phetchaburi,Phetchaburi,TH,13.11189,99.94467,76150,Asia/Bangkok
107.84.153.0,107.84.153.127,107.84.0.0,Los Angeles,California,US,34.05223,-118.24368,90009,America/Los_Angeles
103.125.19.0,103.125.19.255,103.125.0.0,Tangerang,Banten,ID,-6.17806,106.63,,Asia/Jakarta
106.161.145.236,106.161.145.239,106.161.0.0,Shiojiri,Nagano,JP,36.1172,137.9503,399-0745,Asia/Tokyo
106.181.103.48,106.181.103.51,106.181.0.0,Niitsu-honchō,Niigata,JP,37.8081,139.1134,956-0867,Asia/Tokyo
104.195.226.36,104.195.226.39,104.195.0.0,Chatham,Ontario,CA,42.4238,-82.1183,N7M,America/Toronto
104.169.68.44,104.169.68.47,104.169.0.0,Manchester,Ohio,US,38.68813,-83.60936,45144,America/New_York
104.184.63.80,104.184.63.81,104.184.0.0,Rock Island,Illinois,US,41.50948,-90.57875,61201,America/Chicago
101.119.190.64,101.119.190.64,101.119.0.0,Melbourne,Victoria,AU,-37.814,144.96332,3000,Australia/Melbourne
102.168.34.204,102.168.34.205,102.168.0.0,Sfax,Şafāqis,TN,34.74056,10.76028,,Africa/Tunis
107.221.124.0,107.221.125.255,107.221.0.0,Milwaukee,Wisconsin,US,42.9751,-87.8947,53207,America/Chicago
108.4.134.0,108.4.134.255,108.4.0.0,Albany,New York,US,42.65258,-73.75623,12201,America/New_York
104.239.13.73,104.239.13.73,104.239.0.0,Rochester,New York,US,43.15478,-77.61556,14604,America/New_York
103.87.51.0,103.87.51.255,103.87.0.0,Delhi,Delhi,IN,28.65195,77.23149,110001,Asia/Kolkata
104.28.120.100,104.28.120.101,104.28.0.0,Chongqing,Chongqing,CN,29.56026,106.55771,,Asia/Shanghai
107.84.152.192,107.84.152.255,107.84.0.0,Lexington,Kentucky,US,37.98869,-84.47772,40517,America/New_York
1.0.234.192,1.0.234.195,1.0.0.0,Na Yung,Udon Thani,TH,17.89747,102.14981,42150,Asia/Bangkok
106.213.205.64,106.213.205.103,106.213.0.0,Vadodara,Gujarat,IN,22.3218,73.1663,390004,Asia/Kolkata
100.0.170.0,100.0.170.255,100.0.0.0,Taunton,Massachusetts,US,41.9001,-71.08977,02780,America/New_York
105.244.60.64,105.244.60.67,105.244.0.0,Kimberley,Northern Cape,ZA,-28.73226,24.76232,8300,Africa/Johannesburg
103.60.0.0,103.60.3.255,103.60.0.0,Hyderābād,Telangana,IN,17.38405,78.45636,500001,Asia/Kolkata
106.246.7.0,106.246.7.255,106.246.0.0,Seoul,Seoul,KR,37.5506,126.9581,04205,Asia/Seoul
105.96.45.64,105.96.45.87,105.96.0.0,Algiers,Algiers,DZ,36.73225,3.08746,16006,Africa/Algiers
106.208.46.144,106.208.46.151,106.208.0.0,Yārāda,Andhra Pradesh,IN,17.7106,83.3126,530002,Asia/Kolkata
108.175.10.78,108.175.10.81,108.175.0.0,Omaha,Nebraska,US,41.25626,-95.94043,68101,America/Chicago
104.192.154.52,104.192.154.53,104.192.0.0,Sherwood Park,Alberta,CA,53.4391,-113.1903,T8C,America/Edmonton
101.178.216.132,101.178.216.147,101.178.0.0,Sydney,New South Wales,AU,-33.7309,151.2929,2097,Australia/Sydney
105.61.174.0,105.61.175.255,105.61.0.0,Sotik Post,Bomet,KE,-0.78129,35.34156,,Africa/Nairobi
107.91.179.0,107.91.179.3,107.91.0.0,Orinda,California,US,37.87715,-122.17969,94563,America/Los_Angeles
108.214.169.112,108.214.169.117,108.214.0.0,Mustang,Oklahoma,US,35.38423,-97.72449,73064,America/Chicago
101.189.82.88,101.189.82.89,101.189.0.0,Perth,Western Australia,AU,-31.94325,115.86335,6003,Australia/Perth
104.129.98.240,104.129.98.255,104.129.0.0,Sainte-Béatrix,Quebec,CA,46.20007,-73.61587,J6E,America/Toronto
1.159.150.64,1.159.150.77,1.159.0.0,Perth,Western Australia,AU,-32.05797,115.83677,6150,Australia/Perth
101.180.202.0,101.180.202.31,101.180.0.0,Launceston,Tasmania,AU,-41.43876,147.13467,7250,Australia/Hobart
103.21.49.0,103.21.50.255,103.21.0.0,Adelaide,South Australia,AU,-34.92866,138.59863,5000,Australia/Adelaide
101.161.8.84,101.161.8.84,101.161.0.0,Eskdale,Victoria,AU,-36.46667,147.23333,3701,Australia/Melbourne
102.66.243.136,102.66.243.137,102.66.0.0,Rustenburg,North-West,ZA,-25.6666,27.25,0305,Africa/Johannesburg
108.225.92.24,108.225.92.27,108.225.0.0,Cleveland,Texas,US,30.3963,-95.194,77328,America/Chicago
101.176.131.148,101.176.131.151,101.176.0.0,Neath,New South Wales,AU,-32.82757,151.4082,2326,Australia/Sydney
105.129.215.0,105.129.217.127,105.129.0.0,Oujda-Angad,Oriental,MA,34.68139,-1.90858,,Africa/Casablanca
102.170.85.158,102.170.85.159,102.170.0.0,Sfax,Şafāqis,TN,34.74056,10.76028,,Africa/Tunis
102.152.187.180,102.152.187.181,102.152.0.0,Sousse,Sūsah,TN,35.82539,10.63699,,Africa/Tunis
104.61.241.128,104.61.241.159,104.61.0.0,Linden,Alabama,US,32.30625,-87.79807,36748,America/Chicago
101.53.178.51,101.53.178.51,101.53.0.0,San Francisco,California,US,37.7864,-122.3892,94105,America/Los_Angeles
1.20.227.0,1.20.227.35,1.20.0.0,Trang,Trang,TH,7.55633,99.61141,92140,Asia/Bangkok
102.170.183.255,102.170.183.255,102.170.0.0,Sousse,Sūsah,TN,35.82539,10.63699,,Africa/Tunis
102.106.144.151,102.106.144.151,102.106.0.0,Sfax,Şafāqis,TN,34.74056,10.76028,,Africa/Tunis
102.106.23.202,102.106.23.202,102.106.0.0,Sousse,Sūsah,TN,35.82539,10.63699,,Africa/Tunis
107.231.240.0,107.231.244.255,107.231.0.0,Atlanta,Georgia,US,33.749,-84.38798,30302,America/New_York
108.217.146.168,108.217.146.255,108.217.0.0,Little Rock,Arkansas,US,34.7902,-92.5044,72223,America/Chicago
101.191.155.64,101.191.155.79,101.191.0.0,Killara,Victoria,AU,-36.13965,146.95136,3691,Australia/Melbourne
103.81.159.0,103.81.159.159,103.81.0.0,Talwandi Bhai,Punjab,IN,30.85584,74.92979,142050,Asia/Kolkata
103.13.251.0,103.13.251.25,103.13.0.0,Naha,Okinawa,JP,26.2281,127.6881,900-0011,Asia/Tokyo
102.200.97.0,102.200.100.255,102.200.0.0,Port Louis,Port Louis,MU,-20.16194,57.49889,,Indian/Mauritius
104.212.61.128,104.212.61.255,104.212.0.0,Redmond,Washington,US,47.67399,-122.12151,98052,America/Los_Angeles
102.109.52.110,102.109.52.112,102.109.0.0,Sfax,Şafāqis,TN,34.74056,10.76028,,Africa/Tunis
105.209.129.0,105.209.129.255,105.209.0.0,Cape Town,Western Cape,ZA,-34.05,18.4833,7805,Africa/Johannesburg
108.114.245.128,108.114.245.255,108.114.0.0,Springfield,Massachusetts,US,42.0999,-72.5783,01105,America/New_York
101.51.139.100,101.51.139.111,101.51.0.0,Lat Bua Luang,Phra Nakhon Si Ayutthaya,TH,14.1833,100.2833,10210,Asia/Bangkok
106.157.223.0,106.157.223.255,106.157.0.0,Kawasaki,Kanagawa,JP,35.8888,139.5204,356-0001,Asia/Tokyo
101.175.209.71,101.175.209.107,101.175.0.0,Newcastle,New South Wales,AU,-32.9193,151.73565,2292,Australia/Sydney
1.210.59.0,1.210.59.255,1.210.0.0,Daegu,Daegu,KR,35.8591,128.5794,41977,Asia/Seoul
1.52.174.182,1.52.174.183,1.52.0.0,Hà Tĩnh,Hà Tĩnh,VN,18.34282,105.90569,45200,Asia/Bangkok
102.170.208.13,102.170.208.13,102.170.0.0,Sfax,Şafāqis,TN,34.74056,10.76028,,Africa/Tunis
106.66.118.77,106.66.118.77,106.66.0.0,Chennai,Tamil Nadu,IN,13.08784,80.27847,600001,Asia/Kolkata
102.141.79.96,102.141.79.103,102.141.0.0,Lydenburg,Mpumalanga,ZA,-25.1,30.45,1123,Africa/Johannesburg
103.56.17.164,103.56.17.185,103.56.0.0,Shenzhen,Guangdong,CN,22.54554,114.0683,,Asia/Shanghai
106.205.83.172,106.205.83.172,106.205.0.0,Jammu,Jammu and Kashmir,IN,32.73528,74.86167,180002,Asia/Kolkata
103.1.204.0,103.1.207.255,103.1.0.0,Sydney,New South Wales,AU,-33.86785,151.20732,1001,Australia/Sydney
106.220.2.122,106.220.2.124,106.220.0.0,Lucknow,Uttar Pradesh,IN,26.83928,80.92313,226004,Asia/Kolkata
103.145.140.21,103.145.140.21,103.145.0.0,Jakarta,Jakarta,ID,-6.21462,106.84513,,Asia/Jakarta
106.71.199.213,106.71.199.215,106.71.0.0,Gold Coast,Queensland,AU,-28.00029,153.43088,4217,Australia/Brisbane
102.107.0.182,102.107.0.194,102.107.0.0,Sousse,Sūsah,TN,35.82539,10.63699,,Africa/Tunis
1.24.63.86,1.24.63.88,1.24.0.0,Tianjin,Tianjin,CN,39.14222,117.17667,,Asia/Shanghai
101.137.201.96,101.137.201.104,101.137.0.0,Taichung,Taiwan,TW,24.1469,120.6839,,Asia/Taipei
103.214.113.26,103.214.113.27,103.214.0.0,Pekanbaru,Riau,ID,0.51667,101.44167,,Asia/Jakarta
101.166.61.104,101.166.61.105,101.166.0.0,Campbelltown,New South Wales,AU,-34.04484,150.75101,2567,Australia/Sydney
102.16.12.222,102.16.12.222,102.16.0.0,Mahajanga,Boeny,MG,-15.71667,46.31667,,Indian/Antananarivo
1.33.66.80,1.33.66.87,1.33.0.0,Yanagawamachi-saiwaichō,Fukushima,JP,37.85,140.6,960-0501,Asia/Tokyo
102.168.98.201,102.168.98.204,102.168.0.0,Sousse,Sūsah,TN,35.82539,10.63699,,Africa/Tunis
103.146.69.0,103.146.69.255,103.146.0.0,Dhaka,Dhaka,BD,23.7104,90.40744,1000,Asia/Dhaka
104.205.157.56,104.205.157.255,104.205.0.0,Peace River,Alberta,CA,56.23715,-117.29176,T8S,America/Edmonton
106.70.16.248,106.70.16.248,106.70.0.0,Bundaberg,Queensland,AU,-24.86621,152.3479,4670,Australia/Brisbane
103.228.82.0,103.228.82.255,103.228.0.0,Hong Kong,Central and Western,HK,22.27832,114.17469,,Asia/Hong_Kong
1.74.65.108,1.74.65.111,1.74.0.0,Ōita,Oita,JP,33.23333,131.6,870-0021,Asia/Tokyo
103.169.149.0,103.169.149.255,103.169.0.0,Dumai,Riau,ID,1.66711,101.44316,,Asia/Jakarta
107.3.45.118,107.3.45.118,107.3.0.0,Scranton,Pennsylvania,US,41.408,-75.6484,18510,America/New_York
1.156.192.111,1.156.192.111,1.156.0.0,Scarness,Queensland,AU,-25.28405,152.856,4655,Australia/Brisbane
104.235.45.44,104.235.45.45,104.235.0.0,Freeport,Illinois,US,42.29669,-89.62123,61032,America/Chicago
107.144.74.164,107.144.74.167,107.144.0.0,Lealman,Florida,US,27.817,-82.6264,33703,America/New_York
100.38.102.0,100.38.102.255,100.38.0.0,New City,New York,US,41.1476,-73.98931,10956,America/New_York
106.220.177.152,106.220.177.153,106.220.0.0,Dīglūr,Maharashtra,IN,18.54829,77.57695,431717,Asia/Kolkata
101.178.38.238,101.178.38.239,101.178.0.0,Canberra,Australian Capital Territory,AU,-35.27738,149.13882,2612,Australia/Sydney
104.222.112.124,104.222.112.135,104.222.0.0,Ottawa,Ontario,CA,45.3211,-75.7391,K2G,America/Toronto
108.57.122.80,108.57.122.107,108.57.0.0,Lynchburg,Virginia,US,37.4376,-79.205,24503,America/New_York
107.127.50.0,107.127.50.1,107.127.0.0,Ashland City,Tennessee,US,36.27422,-87.06417,37015,America/Chicago
108.44.116.19,108.44.116.23,108.44.0.0,Wise,Virginia,US,36.97593,-82.57571,24293,America/New_York
103.27.29.192,103.27.29.193,103.27.0.0,Boambee,New South Wales,AU,-30.33981,153.06783,2450,Australia/Sydney
103.114.165.0,103.114.165.255,103.114.0.0,Jakarta,Jakarta,ID,-6.21462,106.84513,,Asia/Jakarta
101.189.48.64,101.189.48.81,101.189.0.0,Esperance,Western Australia,AU,-33.85919,121.89164,6450,Australia/Perth
103.137.224.0,103.137.227.255,103.137.0.0,Delhi,Delhi,IN,28.6453,77.2128,110004,Asia/Kolkata
102.106.100.126,102.106.100.126,102.106.0.0,Sousse,Sūsah,TN,35.82539,10.63699,,Africa/Tunis
107.1.203.168,107.1.203.175,107.1.0.0,Fairburn,Georgia,US,33.56706,-84.58104,30213,America/New_York
106.79.199.40,106.79.199.41,106.79.0.0,Kota,Rajasthan,IN,25.18254,75.83907,322243,Asia/Kolkata
108.95.129.0,108.95.129.255,108.95.0.0,El Paso,Texas,US,31.75872,-106.48693,79901,America/Denver
104.169.92.109,104.169.92.109,104.169.0.0,Tipp City,Ohio,US,39.95839,-84.17216,45371,America/New_York
101.180.73.248,101.180.73.248,101.180.0.0,Gold Coast,Queensland,AU,-28.1464,153.4922,4224,Australia/Brisbane
1.227.245.128,1.227.247.255,1.227.0.0,Seoul,Seoul,KR,37.566,126.9784,03141,Asia/Seoul
104.56.232.16,104.56.232.17,104.56.0.0,Rock Island,Illinois,US,41.50948,-90.57875,61201,America/Chicago
1.109.157.176,1.109.157.191,1.109.0.0,Gwangju,Gwangju,KR,35.15472,126.91556,61240,Asia/Seoul
102.168.114.164,102.168.114.164,102.168.0.0,Sousse,Sūsah,TN,35.82539,10.63699,,Africa/Tunis
106.70.75.24,106.70.75.25,106.70.0.0,Gold Coast,Queensland,AU,-28.00029,153.43088,4217,Australia/Brisbane
108.165.45.64,108.165.45.79,108.165.0.0,Lesslie,South Carolina,US,34.8907,-80.95647,29704,America/New_York
105.93.202.127,105.93.202.137,105.93.0.0,Cairo,Cairo,EG,30.06263,31.24967,,Africa/Cairo
105.247.115.55,105.247.115.60,105.247.0.0,Randburg,Gauteng,ZA,-26.0941,28.00123,2032,Africa/Johannesburg
106.128.165.216,106.128.165.223,106.128.0.0,Tokyo,Tokyo,JP,35.659,139.7396,106-0042,Asia/Tokyo
106.157.113.0,106.157.113.255,106.157.0.0,Maebashi,Gunma,JP,36.4286,139.0096,370-3571,Asia/Tokyo
107.144.6.0,107.144.6.7,107.144.0.0,Tampa,Florida,US,27.94752,-82.45843,33606,America/New_York
106.211.136.128,106.211.136.129,106.211.0.0,Ghātsīla,Jharkhand,IN,23.32778,86.69487,832104,Asia/Kolkata
1.52.28.195,1.52.28.195,1.52.0.0,Lái Thiêu,Bình Dương,VN,10.90512,106.69949,75206,Asia/Ho_Chi_Minh
106.213.139.128,106.213.139.143,106.213.0.0,Gondal,Gujarat,IN,21.96074,70.80255,360311,Asia/Kolkata
101.7.152.128,101.7.152.191,101.7.0.0,Chengdu,Sichuan,CN,30.66667,104.06667,,Asia/Shanghai
106.242.74.64,106.242.74.71,106.242.0.0,Asan,Chungcheongnam-do,KR,36.78361,127.00417,31505,Asia/Seoul
107.142.120.13,107.142.120.13,107.142.0.0,Bellaire,Ohio,US,40.01618,-80.74231,43906,America/New_York
103.136.87.0,103.136.87.127,103.136.0.0,Madurai,Tamil Nadu,IN,9.919,78.11953,625002,Asia/Kolkata
1.254.26.224,1.254.26.231,1.254.0.0,Ulsan,Ulsan,KR,35.53722,129.31667,44670,Asia/Seoul
101.183.13.32,101.183.13.95,101.183.0.0,Wollongong,New South Wales,AU,-34.4338,150.8531,2525,Australia/Sydney
103.109.232.0,103.109.232.255,103.109.0.0,Sydney,New South Wales,AU,-33.86785,151.20732,1001,Australia/Sydney
106.71.102.130,106.71.102.139,106.71.0.0,Brisbane,Queensland,AU,-27.46794,153.02809,4000,Australia/Brisbane
108.233.187.0,108.233.187.255,108.233.0.0,Pasadena,California,US,34.14778,-118.14452,91101,America/Los_Angeles
106.171.0.104,106.171.0.111,106.171.0.0,Ōmuta,Fukuoka,JP,33.0044,130.4736,836-0097,Asia/Tokyo
104.152.29.24,104.152.29.24,104.152.0.0,Meadow Lake,Saskatchewan,CA,54.13348,-108.43471,S9X,America/Regina
1.217.104.32,1.217.104.35,1.217.0.0,Chinch'ŏn,North Chungcheong,KR,36.85667,127.44333,27830,Asia/Seoul
101.177.132.100,101.177.132.102,101.177.0.0,Brisbane,Queensland,AU,-27.46794,153.02809,4000,Australia/Brisbane
107.193.240.82,107.193.240.213,107.193.0.0,Orlando,Florida,US,28.5163,-81.4516,32811,America/New_York
101.184.47.144,101.184.47.147,101.184.0.0,Sydney,New South Wales,AU,-33.86785,151.20732,1001,Australia/Sydney
1.10.236.42,1.10.236.42,1.10.0.0,Prachuap Khiri Khan,Prachuap Khiri Khan,TH,11.82098,99.7841,77000,Asia/Bangkok
105.247.229.87,105.247.229.87,105.247.0.0,Groblershoop,Northern Cape,ZA,-28.89531,21.98378,8826,Africa/Johannesburg
105.16.32.16,105.16.32.18,105.16.0.0,Marseille,Provence-Alpes-Côte d'Azur,FR,43.29695,5.38107,13000,Europe/Paris
107.219.171.68,107.219.171.71,107.219.0.0,Holcomb,Missouri,US,36.39923,-90.0237,63852,America/Chicago
108.178.68.4,108.178.68.7,108.178.0.0,Dallas,Texas,US,32.8999,-96.7897,75230,America/Chicago
106.208.9.239,106.208.9.239,106.208.0.0,Gurgaon,Haryana,IN,28.4601,77.02635,122004,Asia/Kolkata
106.133.23.226,106.133.23.226,106.133.0.0,Nagoya,Aichi,JP,35.18147,136.90641,460-0002,Asia/Tokyo
106.128.127.141,106.128.127.158,106.128.0.0,Tokyo,Tokyo,JP,35.6895,139.69171,101-8656,Asia/Tokyo
101.191.93.221,101.191.93.221,101.191.0.0,Ferodale,New South Wales,AU,-32.68381,151.84311,2318,Australia/Sydney
101.187.134.200,101.187.134.200,101.187.0.0,Melbourne,Victoria,AU,-37.814,144.96332,3000,Australia/Melbourne
106.193.129.228,106.193.129.229,106.193.0.0,Ausa,Maharashtra,IN,18.24728,76.4993,413520,Asia/Kolkata
106.181.175.88,106.181.175.111,106.181.0.0,Tokyo,Tokyo,JP,35.6895,139.69171,101-8656,Asia/Tokyo
106.217.159.72,106.217.159.79,106.217.0.0,Narsīpatnam,Andhra Pradesh,IN,17.7377,82.7162,531105,Asia/Kolkata
105.95.74.124,105.95.74.125,105.95.0.0,Banī Suwayf,Beni Suweif,EG,29.07441,31.09785,,Africa/Cairo
103.255.236.0,103.255.239.255,103.255.0.0,Ho Chi Minh City,Ho Chi Minh,VN,10.82302,106.62965,71606,Asia/Ho_Chi_Minh
106.7.91.142,106.7.91.143,106.7.0.0,Hangzhou,Zhejiang,CN,30.29365,120.16142,,Asia/Shanghai
102.110.0.0,102.110.127.255,102.110.0.0,Tunis,Tūnis,TN,36.81897,10.16579,,Africa/Tunis
108.44.67.30,108.44.67.30,108.44.0.0,Bedford,Virginia,US,37.33431,-79.52309,24523,America/New_York
101.174.44.125,101.174.44.129,101.174.0.0,Adelaide,South Australia,AU,-34.92866,138.59863,5000,Australia/Adelaide
108.176.11.200,108.176.11.207,108.176.0.0,Astoria,New York,US,40.7571,-73.9657,10022,America/New_York
101.143.78.0,101.143.78.255,101.143.0.0,Hirakata,Ōsaka,JP,34.8198,135.7176,573-0103,Asia/Tokyo
106.220.96.249,106.220.96.249,106.220.0.0,Chandīgarh,Chandigarh,IN,30.73629,76.7884,160001,Asia/Kolkata
104.38.61.0,104.38.64.255,104.38.0.0,State College,Pennsylvania,US,40.79339,-77.86,16801,America/New_York
106.154.21.0,106.154.21.255,106.154.0.0,Tokyo,Tokyo,JP,35.6895,139.69171,101-8656,Asia/Tokyo
105.247.42.134,105.247.42.135,105.247.0.0,Roodepoort,Gauteng,ZA,-26.1625,27.8725,1714,Africa/Johannesburg
101.116.194.245,101.116.194.255,101.116.0.0,Melbourne,Victoria,AU,-37.814,144.96332,3000,Australia/Melbourne
101.137.94.189,101.137.94.189,101.137.0.0,Douliu,Taiwan,TW,23.70944,120.54333,,Asia/Taipei
103.100.95.16,103.100.95.16,103.100.0.0,Dhaka,Dhaka,BD,23.7104,90.40744,1000,Asia/Dhaka
104.2.51.0,104.2.51.255,104.2.0.0,Houston,Texas,US,29.7991,-95.4118,77008,America/Chicago
106.77.97.250,106.77.97.251,106.77.0.0,Delhi,Delhi,IN,28.65195,77.23149,110001,Asia/Kolkata
101.187.140.128,101.187.140.159,101.187.0.0,Mount Coolum,Queensland,AU,-26.56581,153.09139,4573,Australia/Brisbane
106.64.112.252,106.64.112.255,106.64.0.0,Taipei,Taiwan,TW,25.04776,121.53185,,Asia/Taipei
108.216.75.152,108.216.75.155,108.216.0.0,Lindsborg,Kansas,US,38.57362,-97.67448,67456,America/Chicago
102.185.161.202,102.185.161.203,102.185.0.0,Zagazig,Sharqia,EG,30.58768,31.502,,Africa/Cairo
108.223.2.120,108.223.2.121,108.223.0.0,Farmersville,California,US,36.29773,-119.20678,93223,America/Los_Angeles
107.143.66.244,107.143.66.247,107.143.0.0,Canal Lewisville,Ohio,US,40.29924,-81.83624,43812,America/New_York
104.158.24.113,104.158.24.118,104.158.0.0,Toronto,Ontario,CA,43.70011,-79.4163,M5A,America/Toronto
105.112.5.128,105.112.5.255,105.112.0.0,Abuja,FCT,NG,9.05785,7.49508,,Africa/Lagos
102.106.113.193,102.106.113.193,102.106.0.0,Sousse,Sūsah,TN,35.82539,10.63699,,Africa/Tunis
105.153.11.192,105.153.11.255,105.153.0.0,Salé Al Jadida,Rabat-Salé-Kénitra,MA,33.99722,-6.74047,,Africa/Casablanca
106.71.80.184,106.71.80.191,106.71.0.0,Boyne Island,Queensland,AU,-23.94829,151.35336,4680,Australia/Brisbane
106.78.55.171,106.78.55.171,106.78.0.0,Indore,Madhya Pradesh,IN,22.71792,75.8333,452002,Asia/Kolkata
101.190.131.168,101.190.131.175,101.190.0.0,Appin,New South Wales,AU,-34.20347,150.78644,2560,Australia/Sydney
107.142.2.112,107.142.2.115,107.142.0.0,Swainsboro,Georgia,US,32.59739,-82.33374,30401,America/New_York
101.137.108.132,101.137.108.137,101.137.0.0,Taichung,Taiwan,TW,24.1469,120.6839,,Asia/Taipei
101.49.2.66,101.49.2.66,101.49.0.0,Washington,"Washington, D.C.",US,38.89511,-77.03637,20004,America/New_York
104.159.199.16,104.159.199.39,104.159.0.0,Belleville,Illinois,US,38.5352,-90.0006,62226,America/Chicago
101.189.68.124,101.189.68.127,101.189.0.0,Perth,Western Australia,AU,-32.06336,115.9,6155,Australia/Perth
104.28.49.31,104.28.49.34,104.28.0.0,San Jose,California,US,37.33939,-121.89496,95103,America/Los_Angeles
106.208.11.122,106.208.11.122,106.208.0.0,Nāgercoil,Tamil Nadu,IN,8.17899,77.43227,629002,Asia/Kolkata
103.114.104.88,103.114.104.95,103.114.0.0,Hanoi,Hanoi,VN,21.0245,105.84117,10000,Asia/Bangkok
102.169.212.99,102.169.212.103,102.169.0.0,Sousse,Sūsah,TN,35.82539,10.63699,,Africa/Tunis
106.210.147.128,106.210.147.143,106.210.0.0,Achalpur,Maharashtra,IN,21.25665,77.51006,444723,Asia/Kolkata
106.216.66.208,106.216.66.239,106.216.0.0,Bhubaneshwar,Odisha,IN,20.27241,85.83385,752115,Asia/Kolkata
101.179.169.160,101.179.169.175,101.179.0.0,White Rock,Queensland,AU,-16.97438,145.7633,4868,Australia/Brisbane
104.56.9.140,104.56.9.143,104.56.0.0,Cotulla,Texas,US,28.43693,-99.23503,78014,America/Chicago
103.140.155.228,103.140.155.255,103.140.0.0,Visakhapatnam,Andhra Pradesh,IN,17.68009,83.20161,530044,Asia/Kolkata
1.177.51.128,1.177.51.255,1.177.0.0,Daegu,Daegu,KR,35.902,128.5878,41501,Asia/Seoul
108.232.24.0,108.232.24.255,108.232.0.0,San Diego,California,US,32.7454,-117.1272,92104,America/Los_Angeles
106.70.215.12,106.70.215.15,106.70.0.0,Townsville,Queensland,AU,-19.26639,146.80569,4810,Australia/Brisbane
101.165.235.16,101.165.235.63,101.165.0.0,Melbourne,Victoria,AU,-37.814,144.96332,3000,Australia/Melbourne
101.188.81.24,101.188.81.37,101.188.0.0,Melbourne,Victoria,AU,-37.6363,145.0855,3752,Australia/Melbourne
101.116.142.0,101.116.142.15,101.116.0.0,Melbourne,Victoria,AU,-37.78076,144.8264,3020,Australia/Melbourne
105.66.131.176,105.66.131.183,105.66.0.0,Larache,Tanger-Tetouan-Al Hoceima,MA,35.19321,-6.15572,,Africa/Casablanca
107.141.8.0,107.141.9.255,107.141.0.0,Corpus Christi,Texas,US,27.80058,-97.39638,78401,America/Chicago
102.106.98.30,102.106.98.30,102.106.0.0,Sfax,Şafāqis,TN,34.74056,10.76028,,Africa/Tunis
103.145.141.224,103.145.141.239,103.145.0.0,Dumai,Riau,ID,1.66711,101.44316,,Asia/Jakarta
103.161.56.128,103.161.56.128,103.161.0.0,Delhi,Delhi,IN,28.65195,77.23149,110001,Asia/Kolkata
101.166.31.174,101.166.31.183,101.166.0.0,Mollymook Beach,New South Wales,AU,-35.32966,150.47173,2539,Australia/Sydney
101.190.20.156,101.190.20.157,101.190.0.0,Bowral,New South Wales,AU,-34.4775,150.4204,2576,Australia/Sydney
102.170.101.170,102.170.101.170,102.170.0.0,Sfax,Şafāqis,TN,34.74056,10.76028,,Africa/Tunis
105.109.45.58,105.109.45.58,105.109.0.0,Constantine,Constantine,DZ,36.365,6.61472,04011,Africa/Algiers
102.32.242.160,102.32.242.167,102.32.0.0,Johannesburg,Gauteng,ZA,-26.20227,28.04363,2041,Africa/Johannesburg
106.206.181.112,106.206.181.115,106.206.0.0,Jasrāsar,Rajasthan,IN,27.70701,73.81276,334802,Asia/Kolkata
105.54.252.128,105.54.255.255,105.54.0.0,Nairobi,Nairobi Area,KE,-1.28333,36.81667,,Africa/Nairobi
106.204.204.110,106.204.204.113,106.204.0.0,Ludhiāna,Punjab,IN,30.91204,75.85379,141120,Asia/Kolkata
101.180.195.120,101.180.195.127,101.180.0.0,Melbourne,Victoria,AU,-37.814,144.96332,3000,Australia/Melbourne
105.82.17.217,105.82.17.217,105.82.0.0,Cairo,Cairo,EG,30.06263,31.24967,,Africa/Cairo
101.112.108.56,101.112.108.255,101.112.0.0,Sydney,New South Wales,AU,-33.77697,150.89734,2148,Australia/Sydney
109.10.202.0,109.10.203.255,109.10.0.0,Bayonne,Nouvelle-Aquitaine,FR,43.4932,-1.473,64182 CEDEX,Europe/Paris
102.1.140.128,102.1.140.191,102.1.0.0,Nairobi,Nairobi Area,KE,-1.28333,36.81667,,Africa/Nairobi
106.129.151.214,106.129.151.214,106.129.0.0,Iwaki,Fukushima,JP,36.9693,140.8439,972-8332,Asia/Tokyo
106.68.102.204,106.68.102.205,106.68.0.0,Nickol,Western Australia,AU,-20.74558,116.7954,6714,Australia/Perth
103.2.234.54,103.2.234.111,103.2.0.0,Mysore,Karnataka,IN,12.29791,76.63925,570028,Asia/Kolkata
101.137.149.177,101.137.149.178,101.137.0.0,Taipei,Taiwan,TW,25.04776,121.53185,,Asia/Taipei
1.183.253.16,1.183.253.25,1.183.0.0,Shanghai,Shanghai,CN,31.22222,121.45806,,Asia/Shanghai
104.235.121.154,104.235.121.155,104.235.0.0,Paw Paw,Illinois,US,41.68892,-88.9812,61353,America/Chicago
103.155.57.200,103.155.57.207,103.155.0.0,Morādābād,Uttar Pradesh,IN,28.83893,78.77684,244001,Asia/Kolkata
103.143.208.39,103.143.208.39,103.143.0.0,Da Nang,Da Nang,VN,16.06778,108.22083,50250,Asia/Ho_Chi_Minh
101.119.128.214,101.119.128.215,101.119.0.0,Sydney,New South Wales,AU,-33.86785,151.20732,1001,Australia/Sydney
108.173.238.88,108.173.238.91,108.173.0.0,Calgary,Alberta,CA,51.1387,-114.2015,T3G,America/Edmonton
1.52.205.61,1.52.205.64,1.52.0.0,Ho Chi Minh City,Ho Chi Minh,VN,10.82302,106.62965,71606,Asia/Ho_Chi_Minh
101.119.176.11,101.119.176.15,101.119.0.0,Melbourne,Victoria,AU,-37.814,144.96332,3000,Australia/Melbourne
101.190.138.16,101.190.138.31,101.190.0.0,North Arm Cove,New South Wales,AU,-32.73302,152.01567,2319,Australia/Sydney
102.170.134.217,102.170.134.218,102.170.0.0,Sfax,Şafāqis,TN,34.74056,10.76028,,Africa/Tunis
108.183.159.52,108.183.159.255,108.183.0.0,Auburn,Maine,US,44.09785,-70.23117,04210,America/New_York
101.60.191.174,101.60.191.187,101.60.0.0,Reggio nell'Emilia,Emilia-Romagna,IT,44.69825,10.63125,42100,Europe/Rome
105.242.132.249,105.242.132.253,105.242.0.0,Johannesburg,Gauteng,ZA,-26.20227,28.04363,2041,Africa/Johannesburg
107.144.55.224,107.144.55.227,107.144.0.0,Gulfport,Florida,US,27.74836,-82.70343,33707,America/New_York
101.191.193.24,101.191.193.27,101.191.0.0,Mount Hunter,New South Wales,AU,-34.07167,150.63782,2570,Australia/Sydney
1.218.174.16,1.218.174.31,1.218.0.0,Gimcheon,Gyeongsangbuk-do,KR,36.12176,128.11981,39574,Asia/Seoul
108.208.43.0,108.208.43.255,108.208.0.0,Fort Worth,Texas,US,32.6914,-97.2675,76119,America/Chicago
104.243.250.0,104.243.250.255,104.243.0.0,Rabat,Rabat-Salé-Kénitra,MA,34.01325,-6.83255,,Africa/Casablanca
1.209.20.128,1.209.24.255,1.209.0.0,Seoul,Seoul,KR,37.566,126.9784,03141,Asia/Seoul
103.239.128.0,103.239.131.255,103.239.0.0,The Rocks,New South Wales,AU,-33.85923,151.2081,2000,Australia/Sydney
103.238.117.136,103.238.117.143,103.238.0.0,Baukau,Baucau,TL,-8.47572,126.45633,,Asia/Dili
102.109.225.216,102.109.225.216,102.109.0.0,Sfax,Şafāqis,TN,34.74056,10.76028,,Africa/Tunis
103.221.251.160,103.221.251.255,103.221.0.0,Mumbai,Maharashtra,IN,19.07283,72.88261,400070,Asia/Kolkata
103.79.182.0,103.79.183.255,103.79.0.0,Khulna,Khulna,BD,22.80979,89.56439,9100,Asia/Dhaka
101.49.31.132,101.49.31.133,101.49.0.0,Washington,"Washington, D.C.",US,38.89511,-77.03637,20004,America/New_York
106.79.59.81,106.79.59.81,106.79.0.0,Pune,Maharashtra,IN,18.51957,73.85535,411001,Asia/Kolkata
106.70.33.84,106.70.33.87,106.70.0.0,Gold Coast,Queensland,AU,-28.00029,153.43088,4217,Australia/Brisbane
108.200.178.0,108.200.178.255,108.200.0.0,San Ramon,California,US,37.77993,-121.97802,94583,America/Los_Angeles
1.55.51.253,1.55.51.255,1.55.0.0,Việt Trì,Phú Thọ,VN,21.32274,105.40198,35150,Asia/Bangkok
104.156.77.0,104.156.77.255,104.156.0.0,Montréal,Quebec,CA,45.5101,-73.6478,H3R,America/Toronto
102.53.95.212,102.53.95.215,102.53.0.0,Meknès,Fès-Meknès,MA,33.89352,-5.54727,,Africa/Casablanca
101.136.209.65,101.136.209.65,101.136.0.0,Kaohsiung,Takao,TW,22.61626,120.31333,,Asia/Taipei
108.197.99.205,108.197.99.217,108.197.0.0,Little Rock,Arkansas,US,34.6836,-92.2776,72206,America/Chicago
104.174.161.116,104.174.164.255,104.174.0.0,Los Angeles,California,US,34.05223,-118.24368,90009,America/Los_Angeles
104.177.137.16,104.177.137.19,104.177.0.0,Eau Claire,Wisconsin,US,44.8346,-91.5159,54703,America/Chicago
104.169.93.196,104.169.93.196,104.169.0.0,New Marshfield,Ohio,US,39.32507,-82.21793,45766,America/New_York
107.189.57.0,107.189.57.255,107.189.0.0,Westfield,Massachusetts,US,42.12509,-72.74954,01085,America/New_York
1.47.11.220,1.47.12.21,1.47.0.0,Bangkok,Bangkok,TH,13.75398,100.50144,10200,Asia/Bangkok
106.129.191.200,106.129.191.203,106.129.0.0,Sakura,Chiba,JP,35.7168,140.1347,285-0856,Asia/Tokyo
103.24.21.248,103.24.21.255,103.24.0.0,Hyderābād,Telangana,IN,17.38405,78.45636,500001,Asia/Kolkata
108.234.4.69,108.234.4.69,108.234.0.0,Cheboygan,Michigan,US,45.64696,-84.47448,49721,America/Detroit
102.168.165.81,102.168.165.81,102.168.0.0,Sfax,Şafāqis,TN,34.74056,10.76028,,Africa/Tunis
107.212.231.128,107.212.231.255,107.212.0.0,Redmond,Washington,US,47.67399,-122.12151,98052,America/Los_Angeles
104.53.93.56,104.53.93.57,104.53.0.0,South Gate,California,US,33.95474,-118.21202,90280,America/Los_Angeles
101.119.66.216,101.119.66.216,101.119.0.0,Melbourne,Victoria,AU,-37.814,144.96332,3000,Australia/Melbourne
103.27.228.82,103.27.228.82,103.27.0.0,Parole,Maryland,US,38.97956,-76.53052,21401,America/New_York
103.252.35.156,103.252.35.228,103.252.0.0,Dasmariñas,Calabarzon,PH,14.32944,120.93667,4114,Asia/Manila
1.24.49.167,1.24.49.167,1.24.0.0,Qingdao,Shandong,CN,36.06488,120.38042,,Asia/Shanghai
103.117.202.192,103.117.202.223,103.117.0.0,Fatwa,Bihar,IN,25.50958,85.30504,803201,Asia/Kolkata
106.208.9.225,106.208.9.225,106.208.0.0,Gurgaon,Haryana,IN,28.4601,77.02635,122004,Asia/Kolkata
104.249.243.60,104.249.243.63,104.249.0.0,Cornwall,Ontario,CA,45.1686,-74.8966,K0C,America/Toronto
108.172.66.120,108.172.66.120,108.172.0.0,Campbell River,British Columbia,CA,50.01634,-125.24459,V9W,America/Vancouver
107.204.80.0,107.204.80.255,107.204.0.0,St. Louis,Missouri,US,38.659,-90.2496,63113,America/Chicago
100.7.200.116,100.7.200.119,100.7.0.0,Deltaville,Virginia,US,37.55486,-76.33689,23043,America/New_York
108.240.155.0,108.240.155.39,108.240.0.0,Atascadero,California,US,35.48942,-120.67073,93422,America/Los_Angeles
106.253.134.200,106.253.134.211,106.253.0.0,Anseong,Gyeonggi-do,KR,37.01083,127.27028,17569,Asia/Seoul
104.233.116.192,104.233.116.255,104.233.0.0,Khobar,Eastern Province,SA,26.27944,50.20833,,Asia/Riyadh
107.209.20.72,107.209.20.255,107.209.0.0,Santa Rosa,California,US,38.4432,-122.7547,95401,America/Los_Angeles
101.179.2.200,101.179.2.217,101.179.0.0,Brisbane,Queensland,AU,-27.24842,152.98197,4503,Australia/Brisbane
104.180.201.228,104.180.201.229,104.180.0.0,Indianapolis,Indiana,US,39.6782,-86.1976,46217,America/Indiana/Indianapolis
102.185.139.26,102.185.139.26,102.185.0.0,Kafr ash Shaykh,Kafr el-Sheikh,EG,31.11174,30.93991,,Africa/Cairo
108.243.227.0,108.243.227.31,108.243.0.0,Louisiana,Missouri,US,39.44894,-91.05153,63353,America/Chicago
104.28.12.5,104.28.12.6,104.28.0.0,Bridgetown,Saint Michael,BB,13.10732,-59.62021,,America/Barbados
103.28.4.0,103.28.11.255,103.28.0.0,Beijing,Beijing,CN,39.9075,116.39723,,Asia/Shanghai
108.74.167.44,108.74.167.63,108.74.0.0,Santa Clara,California,US,37.35411,-121.95524,95050,America/Los_Angeles
101.167.27.224,101.167.27.231,101.167.0.0,Toowoomba,Queensland,AU,-27.56056,151.95386,4350,Australia/Brisbane
101.58.173.56,101.58.173.63,101.58.0.0,Palermo,Sicily,IT,38.13205,13.33561,90100,Europe/Rome
108.17.86.0,108.17.86.255,108.17.0.0,Pittsburgh,Pennsylvania,US,40.4322,-80.1021,15205,America/New_York
107.220.16.76,107.220.16.76,107.220.0.0,Bloomington,Indiana,US,39.1401,-86.5083,47401,America/Indiana/Indianapolis
106.71.188.120,106.71.188.127,106.71.0.0,Bundaberg,Queensland,AU,-24.86621,152.3479,4670,Australia/Brisbane
102.106.3.102,102.106.3.102,102.106.0.0,Sousse,Sūsah,TN,35.82539,10.63699,,Africa/Tunis
102.168.16.134,102.168.16.134,102.168.0.0,Sfax,Şafāqis,TN,34.74056,10.76028,,Africa/Tunis
101.181.13.93,101.181.13.93,101.181.0.0,Mildura,Victoria,AU,-34.1856,142.10017,3500,Australia/Melbourne
104.251.232.0,104.251.239.255,104.251.0.0,Los Angeles,California,US,34.05223,-118.24368,90009,America/Los_Angeles
104.179.71.168,104.179.71.175,104.179.0.0,Hudson,Wisconsin,US,44.97469,-92.75687,54016,America/Chicago
106.222.233.208,106.222.233.255,106.222.0.0,Bhubaneshwar,Odisha,IN,20.27241,85.83385,752115,Asia/Kolkata
106.161.240.253,106.161.241.2,106.161.0.0,Tokyo,Tokyo,JP,35.6895,139.69171,101-8656,Asia/Tokyo
104.156.38.204,104.156.38.211,104.156.0.0,Tucumcari,New Mexico,US,35.17191,-103.72686,88401,America/Denver
106.206.209.44,106.206.209.79,106.206.0.0,Kollam,Kerala,IN,8.8717,76.6384,691020,Asia/Kolkata
108.178.100.96,108.178.100.103,108.178.0.0,Round Rock,Texas,US,30.50826,-97.6789,78681,America/Chicago
101.176.24.66,101.176.24.67,101.176.0.0,Stanhope,Victoria,AU,-36.44725,144.98267,3623,Australia/Melbourne
105.247.222.86,105.247.222.111,105.247.0.0,Johannesburg,Gauteng,ZA,-26.20227,28.04363,2041,Africa/Johannesburg
102.186.100.0,102.186.100.127,102.186.0.0,Al Khānkah,Qalyubia,EG,30.21035,31.36812,,Africa/Cairo
101.116.220.84,101.116.220.126,101.116.0.0,Melbourne,Victoria,AU,-37.83767,144.6994,3029,Australia/Melbourne
108.175.83.192,108.175.83.199,108.175.0.0,Cornwall,Ontario,CA,45.01809,-74.72815,K6J,America/Toronto
101.175.138.100,101.175.138.103,101.175.0.0,Picton East,Western Australia,AU,-33.31135,115.72475,6232,Australia/Perth
1.38.61.136,1.38.61.137,1.38.0.0,Dindigul,Tamil Nadu,IN,10.36896,77.98036,624002,Asia/Kolkata
101.113.25.252,101.113.25.255,101.113.0.0,Bargo,New South Wales,AU,-34.29301,150.57806,2574,Australia/Sydney
104.28.236.175,104.28.236.181,104.28.0.0,New York City,New York,US,40.71427,-74.00597,10004,America/New_York
107.3.58.220,107.3.58.223,107.3.0.0,Manchester,New Hampshire,US,42.99564,-71.45479,03101,America/New_York
1.2.150.184,1.2.150.187,1.2.0.0,Bueng Khong Long,Bueng Kan,TH,17.96129,104.04667,43210,Asia/Bangkok
102.170.64.127,102.170.64.128,102.170.0.0,Sousse,Sūsah,TN,35.82539,10.63699,,Africa/Tunis
106.68.136.104,106.68.136.111,106.68.0.0,Perth,Western Australia,AU,-31.90255,116.16725,6073,Australia/Perth
105.67.131.248,105.67.131.255,105.67.0.0,Temara,Rabat-Salé-Kénitra,MA,33.92866,-6.90656,,Africa/Casablanca
104.53.243.136,104.53.243.139,104.53.0.0,Weed,California,US,41.42265,-122.38613,96094,America/Los_Angeles
105.160.19.250,105.160.19.251,105.160.0.0,Siaya,Siaya,KE,0.0607,34.28806,,Africa/Nairobi
104.228.193.254,104.228.193.255,104.228.0.0,Thornton,New Hampshire,US,43.89285,-71.67591,03285,America/New_York
103.44.144.0,103.44.147.255,103.44.0.0,Beijing,Beijing,CN,39.9075,116.39723,,Asia/Shanghai
108.255.192.0,108.255.193.255,108.255.0.0,Fremont,California,US,37.54827,-121.98857,94536,America/Los_Angeles
1.250.170.192,1.250.170.255,1.250.0.0,Jeonju,Jeollabuk-do,KR,35.82194,127.14889,54992,Asia/Seoul
104.148.206.224,104.148.206.231,104.148.0.0,Tuckahoe,New York,US,40.89899,-72.41092,10707,America/New_York
107.167.229.120,107.167.229.123,107.167.0.0,Cameron,Missouri,US,39.74028,-94.24106,64429,America/Chicago
108.75.106.75,108.75.106.75,108.75.0.0,The Galena Territory,Illinois,US,42.39343,-90.32582,61036,America/Chicago
106.213.149.12,106.213.149.15,106.213.0.0,Chalāla,Gujarat,IN,22.97283,72.67342,365555,Asia/Kolkata
104.60.23.0,104.60.23.255,104.60.0.0,Los Angeles,California,US,34.0531,-118.3806,90035,America/Los_Angeles
101.136.86.4,101.136.86.15,101.136.0.0,Taipei,Taiwan,TW,25.04776,121.53185,,Asia/Taipei
108.247.79.136,108.247.79.143,108.247.0.0,Columbus,Mississippi,US,33.5508,-88.4865,39705,America/Chicago
108.255.32.216,108.255.32.218,108.255.0.0,Hartshorne,Oklahoma,US,34.8451,-95.55748,74547,America/Chicago
101.177.160.87,101.177.160.88,101.177.0.0,Gold Coast,Queensland,AU,-28.00029,153.43088,4217,Australia/Brisbane
106.194.138.96,106.194.138.111,106.194.0.0,Indore,Madhya Pradesh,IN,22.7233,75.87,452001,Asia/Kolkata
104.8.114.244,104.8.114.247,104.8.0.0,Longview,Texas,US,32.5547,-94.7767,75605,America/Chicago
100.36.3.185,100.36.3.185,100.36.0.0,Boswell's Corner,Virginia,US,38.50541,-77.37263,22554,America/New_York
107.141.251.70,107.141.251.70,107.141.0.0,Morley,Michigan,US,43.49086,-85.44393,49336,America/Detroit
102.109.32.12,102.109.32.13,102.109.0.0,Sfax,Şafāqis,TN,34.74056,10.76028,,Africa/Tunis
102.170.53.157,102.170.53.157,102.170.0.0,Sfax,Şafāqis,TN,34.74056,10.76028,,Africa/Tunis
106.59.1.88,106.59.1.95,106.59.0.0,Hangzhou,Zhejiang,CN,30.29365,120.16142,,Asia/Shanghai
104.152.79.0,104.152.79.255,104.152.0.0,Valley City,North Dakota,US,46.92331,-98.00315,58072,America/Chicago
106.217.15.0,106.217.15.0,106.217.0.0,Attur,Tamil Nadu,IN,11.59414,78.60143,606102,Asia/Kolkata
106.150.94.0,106.150.94.255,106.150.0.0,Matsue,Shimane,JP,35.4729,133.0563,690-0886,Asia/Tokyo
107.179.194.182,107.179.194.207,107.179.0.0,Windsor,Ontario,CA,42.2836,-82.9771,N8W,America/Toronto
104.193.108.0,104.193.111.255,104.193.0.0,Atlanta,Georgia,US,33.749,-84.38798,30302,America/New_York
104.233.92.128,104.233.92.255,104.233.0.0,Riyadh,Riyadh Region,SA,24.68773,46.72185,,Asia/Riyadh
107.143.66.28,107.143.66.51,107.143.0.0,Columbus,Ohio,US,39.9444,-82.8903,43227,America/New_York
106.68.187.236,106.68.187.255,106.68.0.0,Perth,Western Australia,AU,-31.8458,115.7796,6023,Australia/Perth
104.191.10.0,104.191.11.195,104.191.0.0,San Antonio,Texas,US,29.4189,-98.6895,78245,America/Chicago
107.0.93.32,107.0.93.40,107.0.0.0,Lisle,Illinois,US,41.80114,-88.07479,60532,America/Chicago
108.198.200.148,108.198.200.167,108.198.0.0,Meridian,Mississippi,US,32.3574,-88.656,39301,America/Chicago
104.187.18.108,104.187.18.131,104.187.0.0,Port Barre,Louisiana,US,30.5602,-91.95401,70577,America/Chicago
101.138.227.80,101.138.227.111,101.138.0.0,Taipei,Taiwan,TW,25.04776,121.53185,,Asia/Taipei
108.192.84.204,108.192.84.207,108.192.0.0,Meyers Lake,Ohio,US,40.81256,-81.4165,44708,America/New_York
101.119.110.220,101.119.110.222,101.119.0.0,Sydney,New South Wales,AU,-33.86785,151.20732,1001,Australia/Sydney
108.216.95.128,108.216.95.255,108.216.0.0,North Randall,Ohio,US,41.43478,-81.52568,44128,America/New_York
1.32.8.0,1.32.8.255,1.32.0.0,Kuala Lumpur,Kuala Lumpur,MY,3.0666,101.6122,47180,Asia/Kuala_Lumpur
101.175.195.128,101.175.195.129,101.175.0.0,Sydney,New South Wales,AU,-33.86785,151.20732,1001,Australia/Sydney
1.53.115.170,1.53.115.170,1.53.0.0,Huế,Thừa Thiên-Huế,VN,16.4619,107.59546,49198,Asia/Bangkok
103.123.228.0,103.123.228.255,103.123.0.0,Bogor,West Java,ID,-6.59444,106.78917,,Asia/Jakarta
101.184.10.128,101.184.10.135,101.184.0.0,Bendick Murrell,New South Wales,AU,-34.16667,148.43333,2803,Australia/Sydney
107.134.232.228,107.134.232.229,107.134.0.0,Richardson,Texas,US,32.94818,-96.72972,75080,America/Chicago
1.28.234.233,1.28.234.235,1.28.0.0,Tianjin,Tianjin,CN,39.14222,117.17667,,Asia/Shanghai
107.206.238.166,107.206.238.166,107.206.0.0,South Farmingdale,New York,US,40.72066,-73.44012,11735,America/New_York
1.52.107.92,1.52.108.27,1.52.0.0,Ho Chi Minh City,Ho Chi Minh,VN,10.82302,106.62965,71606,Asia/Ho_Chi_Minh
104.59.98.80,104.59.98.255,104.59.0.0,San Diego,California,US,32.71571,-117.16472,92101,America/Los_Angeles
108.75.42.252,108.75.42.255,108.75.0.0,Nashville,Tennessee,US,36.16589,-86.78444,37201,America/Chicago
1.183.238.208,1.183.238.224,1.183.0.0,Guangzhou,Guangdong,CN,23.11667,113.25,,Asia/Shanghai
1.43.124.216,1.43.124.223,1.43.0.0,Warnervale,New South Wales,AU,-33.24662,151.45173,2259,Australia/Sydney
109.0.246.0,109.0.246.67,109.0.0.0,Lyon,Auvergne-Rhône-Alpes,FR,45.74846,4.84671,69000,Europe/Paris
103.247.32.0,103.247.35.255,103.247.0.0,Jakarta,Jakarta,ID,-6.21462,106.84513,,Asia/Jakarta
105.82.6.123,105.82.6.125,105.82.0.0,Banī Suwayf,Beni Suweif,EG,29.07441,31.09785,,Africa/Cairo
108.219.109.0,108.219.109.255,108.219.0.0,Decatur,Georgia,US,33.6954,-84.2489,30034,America/New_York
108.48.40.0,108.48.40.255,108.48.0.0,Bowie,Maryland,US,38.9797,-76.7435,20715,America/New_York
101.174.84.168,101.174.84.175,101.174.0.0,Bermagui,New South Wales,AU,-36.419,150.06355,2546,Australia/Sydney
102.106.14.128,102.106.14.255,102.106.0.0,Sfax,Şafāqis,TN,34.74056,10.76028,,Africa/Tunis
106.197.83.64,106.197.83.79,106.197.0.0,Kallakurichi,Tamil Nadu,IN,11.73379,78.95925,606213,Asia/Kolkata
101.53.185.216,101.53.185.216,101.53.0.0,San Francisco,California,US,37.7864,-122.3892,94105,America/Los_Angeles
104.28.253.51,104.28.253.56,104.28.0.0,Cayenne,Guyane,GF,4.93333,-52.33333,97300,America/Cayenne
101.53.146.190,101.53.146.223,101.53.0.0,Surat,Gujarat,IN,21.19594,72.83023,395005,Asia/Kolkata
107.9.94.22,107.9.94.24,107.9.0.0,Columbus,Ohio,US,39.96118,-82.99879,43215,America/New_York
106.207.44.204,106.207.44.215,106.207.0.0,Madhubani,Bihar,IN,26.49046,85.8383,847308,Asia/Kolkata
101.166.46.88,101.166.46.90,101.166.0.0,Sydney,New South Wales,AU,-33.86785,151.20732,1001,Australia/Sydney
108.30.230.0,108.30.230.255,108.30.0.0,New York City,New York,US,40.7139,-74.007,10007,America/New_York
101.184.49.250,101.184.49.251,101.184.0.0,Penrose,New South Wales,AU,-34.50515,150.77671,2530,Australia/Sydney
104.28.55.194,104.28.55.195,104.28.0.0,High Point,North Carolina,US,35.95569,-80.00532,27260,America/New_York
107.19.16.41,107.19.16.41,107.19.0.0,Presque Isle,Maine,US,46.68115,-68.01586,04769,America/New_York
101.181.118.48,101.181.118.55,101.181.0.0,Melbourne,Victoria,AU,-37.814,144.96332,3000,Australia/Melbourne
102.185.230.243,102.185.230.243,102.185.0.0,Zagazig,Sharqia,EG,30.58768,31.502,,Africa/Cairo
101.187.153.0,101.187.153.125,101.187.0.0,Perth,Western Australia,AU,-31.9272,115.8528,6906,Australia/Perth
108.188.34.0,108.188.34.255,108.188.0.0,Orlando,Florida,US,28.514,-81.357,32806,America/New_York
103.108.49.0,103.108.49.255,103.108.0.0,Bangkok,Bangkok,TH,13.75398,100.50144,10200,Asia/Bangkok
1.52.253.232,1.52.253.235,1.52.0.0,Trôi,Hanoi,VN,21.06953,105.70646,02106,Asia/Bangkok
108.119.13.128,108.119.13.135,108.119.0.0,Rockdale,Texas,US,30.65548,-97.00137,76567,America/Chicago
105.93.208.92,105.93.208.95,105.93.0.0,Cairo,Cairo,EG,30.06263,31.24967,,Africa/Cairo
108.119.139.0,108.119.139.127,108.119.0.0,Chicago,Illinois,US,41.8093,-87.7052,60632,America/Chicago
107.87.12.128,107.87.14.255,107.87.0.0,San Francisco,California,US,37.77493,-122.41942,94102,America/Los_Angeles
104.8.107.32,104.8.107.39,104.8.0.0,Amarillo,Texas,US,35.2309,-101.806,79107,America/Chicago
103.165.159.104,103.165.159.111,103.165.0.0,Sātkhira,Khulna,BD,22.70817,89.07185,9414,Asia/Dhaka
102.169.208.250,102.169.208.250,102.169.0.0,Sfax,Şafāqis,TN,34.74056,10.76028,,Africa/Tunis
108.234.143.14,108.234.143.35,108.234.0.0,Hayti,Missouri,US,36.23368,-89.74953,63851,America/Chicago
103.31.38.124,103.31.38.125,103.31.0.0,Pati,Central Java,ID,-6.7559,111.038,,Asia/Jakarta
106.150.80.244,106.150.80.251,106.150.0.0,Takaoka,Toyama,JP,36.75,137.01667,933-0021,Asia/Tokyo
107.222.194.117,107.222.194.117,107.222.0.0,Macon,Mississippi,US,33.1054,-88.56088,39341,America/Chicago
1.156.33.168,1.156.33.171,1.156.0.0,Sydney,New South Wales,AU,-33.8912,150.93532,2166,Australia/Sydney
101.191.226.152,101.191.226.155,101.191.0.0,Oberon,New South Wales,AU,-33.70398,149.85915,2787,Australia/Sydney
108.169.187.76,108.169.187.79,108.169.0.0,Louisville,Kentucky,US,38.1381,-85.6953,40219,America/Kentucky/Louisville
103.133.109.133,103.133.109.135,103.133.0.0,Hanoi,Hanoi,VN,21.0245,105.84117,10000,Asia/Bangkok
102.170.67.201,102.170.67.201,102.170.0.0,Sfax,Şafāqis,TN,34.74056,10.76028,,Africa/Tunis
107.89.19.224,107.89.19.231,107.89.0.0,Huntingburg,Indiana,US,38.29894,-86.955,47542,America/Indiana/Vincennes
102.109.54.131,102.109.54.131,102.109.0.0,Sfax,Şafāqis,TN,34.74056,10.76028,,Africa/Tunis
1.120.188.106,1.120.188.106,1.120.0.0,Launceston,Tasmania,AU,-41.43876,147.13467,7250,Australia/Hobart
107.143.6.236,107.143.6.237,107.143.0.0,Waxahachie,Texas,US,32.38653,-96.84833,75165,America/Chicago
101.166.0.186,101.166.0.186,101.166.0.0,Sydney,New South Wales,AU,-33.82486,151.19361,2065,Australia/Sydney
106.203.224.240,106.203.224.247,106.203.0.0,Gorakhpur,Uttar Pradesh,IN,26.71423,83.36978,273016,Asia/Kolkata
1.158.138.106,1.158.138.107,1.158.0.0,Port Lincoln,South Australia,AU,-34.72625,135.87442,5606,Australia/Adelaide
107.209.204.200,107.209.204.207,107.209.0.0,New Albany,Mississippi,US,34.49427,-89.00784,38652,America/Chicago
103.142.214.128,103.142.215.255,103.142.0.0,Jakarta,Jakarta,ID,-6.21462,106.84513,,Asia/Jakarta
105.95.69.165,105.95.69.166,105.95.0.0,Cairo,Cairo,EG,30.06263,31.24967,,Africa/Cairo
106.64.186.32,106.64.186.35,106.64.0.0,Tainan,Taiwan,TW,22.99083,120.21333,,Asia/Taipei
106.71.48.198,106.71.48.200,106.71.0.0,Brisbane,Queensland,AU,-27.61277,152.80217,4304,Australia/Brisbane
106.213.241.192,106.213.241.223,106.213.0.0,Rājkot,Gujarat,IN,22.06665,70.7521,360320,Asia/Kolkata
106.246.192.16,106.246.192.19,106.246.0.0,Gwangju,Gwangju,KR,35.15472,126.91556,61240,Asia/Seoul
106.201.148.0,106.201.148.255,106.201.0.0,Chennai,Tamil Nadu,IN,13.0506,80.2642,600014,Asia/Kolkata
101.177.45.112,101.177.45.119,101.177.0.0,Newell,Queensland,AU,-16.42637,145.40603,4873,Australia/Brisbane
102.170.139.148,102.170.139.150,102.170.0.0,Sousse,Sūsah,TN,35.82539,10.63699,,Africa/Tunis
103.147.150.172,103.147.150.175,103.147.0.0,Panchkula,Haryana,IN,30.69461,76.8504,134118,Asia/Kolkata
106.69.127.32,106.69.127.47,106.69.0.0,Kiama,New South Wales,AU,-34.66828,150.85219,2533,Australia/Sydney
103.133.222.240,103.133.222.255,103.133.0.0,Pati,Central Java,ID,-6.7559,111.038,,Asia/Jakarta
103.6.87.94,103.6.87.94,103.6.0.0,Chennai,Tamil Nadu,IN,13.08784,80.27847,600001,Asia/Kolkata
101.175.171.78,101.175.171.79,101.175.0.0,Perth,Western Australia,AU,-31.8347,115.8513,6064,Australia/Perth
108.5.208.0,108.5.209.255,108.5.0.0,Jersey City,New Jersey,US,40.718,-74.0754,07304,America/New_York
103.192.117.140,103.192.117.200,103.192.0.0,Kolkata,West Bengal,IN,22.56263,88.36304,700006,Asia/Kolkata
1.120.146.182,1.120.146.187,1.120.0.0,Launceston,Tasmania,AU,-41.43876,147.13467,7250,Australia/Hobart
102.170.225.129,102.170.225.129,102.170.0.0,Sfax,Şafāqis,TN,34.74056,10.76028,,Africa/Tunis
1.53.91.159,1.53.91.159,1.53.0.0,Ho Chi Minh City,Ho Chi Minh,VN,10.82302,106.62965,71606,Asia/Ho_Chi_Minh
108.237.136.0,108.237.136.255,108.237.0.0,Santa Ana,California,US,33.7086,-117.8701,92707,America/Los_Angeles
106.59.23.174,106.59.23.191,106.59.0.0,Hangzhou,Zhejiang,CN,30.29365,120.16142,,Asia/Shanghai
1.72.24.152,1.72.24.159,1.72.0.0,Nagoya,Aichi,JP,35.18147,136.90641,460-0002,Asia/Tokyo
104.137.1.0,104.137.1.255,104.137.0.0,Montgomery,Alabama,US,32.3374,-86.2715,36111,America/Chicago
104.28.89.6,104.28.89.7,104.28.0.0,Brest,Brittany,FR,48.39029,-4.48628,29200,Europe/Paris
101.119.143.6,101.119.143.6,101.119.0.0,Melbourne,Victoria,AU,-37.814,144.96332,3000,Australia/Melbourne
107.131.237.0,107.131.237.11,107.131.0.0,Camden,Arkansas,US,33.5948,-92.8513,71701,America/Chicago
104.218.193.197,104.218.193.200,104.218.0.0,Frankfurt am Main,Hesse,DE,50.11552,8.68417,60306,Europe/Berlin
103.84.80.0,103.84.80.255,103.84.0.0,Pimpri,Maharashtra,IN,18.62292,73.80696,412303,Asia/Kolkata
102.223.57.144,102.223.57.255,102.223.0.0,Durban,KwaZulu-Natal,ZA,-29.90835,30.95,4089,Africa/Johannesburg
108.240.146.0,108.240.146.255,108.240.0.0,Bakersfield,California,US,35.3396,-119.0218,93304,America/Los_Angeles
1.20.222.234,1.20.222.234,1.20.0.0,Khun Tan,Chiang Rai,TH,19.83353,100.25858,57340,Asia/Bangkok
104.129.92.0,104.129.92.255,104.129.0.0,Astoria,New York,US,40.7571,-73.9657,10022,America/New_York
101.109.27.96,101.109.27.132,101.109.0.0,Pattaya,Chon Buri,TH,12.93333,100.88333,76130,Asia/Bangkok
101.191.214.248,101.191.214.255,101.191.0.0,Singleton,New South Wales,AU,-32.56742,151.16603,2330,Australia/Sydney
106.202.132.251,106.202.132.251,106.202.0.0,Gorakhpur,Uttar Pradesh,IN,26.76628,83.36889,273001,Asia/Kolkata
102.168.181.76,102.168.181.76,102.168.0.0,Sousse,Sūsah,TN,35.82539,10.63699,,Africa/Tunis
101.184.20.238,101.184.20.243,101.184.0.0,Sydney,New South Wales,AU,-33.7301,150.903,2763,Australia/Sydney
101.180.16.76,101.180.16.87,101.180.0.0,Newcastle,New South Wales,AU,-32.9071,151.7518,2297,Australia/Sydney
101.58.86.150,101.58.86.151,101.58.0.0,San Vito dei Normanni,Apulia,IT,40.65642,17.70814,72019,Europe/Rome
103.16.121.0,103.16.123.255,103.16.0.0,Taipei,Taiwan,TW,25.04776,121.53185,,Asia/Taipei
101.138.50.200,101.138.50.207,101.138.0.0,Banqiao,Taipei,TW,25.01427,121.46719,,Asia/Taipei
102.156.94.128,102.156.94.255,102.156.0.0,El Battan,Manouba,TN,36.80368,9.84424,,Africa/Tunis
1.146.70.240,1.146.70.247,1.146.0.0,Melbourne,Victoria,AU,-37.814,144.96332,3000,Australia/Melbourne
106.210.217.48,106.210.217.63,106.210.0.0,Gangākher,Maharashtra,IN,18.96962,76.74946,431514,Asia/Kolkata
103.240.231.227,103.240.231.227,103.240.0.0,Warragul,Victoria,AU,-38.15912,145.93118,3820,Australia/Melbourne
101.184.198.232,101.184.198.243,101.184.0.0,Sydney,New South Wales,AU,-33.85826,151.28032,2030,Australia/Sydney
101.185.236.80,101.185.236.95,101.185.0.0,Mandurah,Western Australia,AU,-32.4847,115.77075,6180,Australia/Perth
100.45.125.128,100.45.125.255,100.45.0.0,Fremont,California,US,37.5308,-121.9712,94538,America/Los_Angeles
108.178.163.176,108.178.163.191,108.178.0.0,Santa Monica,California,US,34.01949,-118.49138,90401,America/Los_Angeles
101.189.225.6,101.189.225.7,101.189.0.0,Nahrunda,Queensland,AU,-26.20627,152.61928,4570,Australia/Brisbane
101.119.143.241,101.119.143.242,101.119.0.0,Sydney,New South Wales,AU,-33.86785,151.20732,1001,Australia/Sydney
1.232.197.0,1.232.197.255,1.232.0.0,Seoul,Seoul,KR,37.5548,127.0093,04598,Asia/Seoul
106.204.70.44,106.204.70.44,106.204.0.0,Ludhiāna,Punjab,IN,30.91204,75.85379,141120,Asia/Kolkata
108.63.252.190,108.63.252.191,108.63.0.0,Edmonton,Alberta,CA,53.55014,-113.46871,T5H,America/Edmonton
105.89.209.66,105.89.209.66,105.89.0.0,Cairo,Cairo,EG,30.06263,31.24967,,Africa/Cairo
101.174.39.64,101.174.39.67,101.174.0.0,Sydney,New South Wales,AU,-33.7378,151.0722,1771,Australia/Sydney
101.119.137.140,101.119.137.140,101.119.0.0,Melbourne,Victoria,AU,-37.814,144.96332,3000,Australia/Melbourne
1.46.9.28,1.46.9.31,1.46.0.0,Phachi,Phra Nakhon Si Ayutthaya,TH,14.44914,100.72833,13140,Asia/Bangkok
106.211.78.11,106.211.78.12,106.211.0.0,Ludhiāna,Punjab,IN,30.91204,75.85379,141120,Asia/Kolkata
101.1.248.40,101.1.248.255,101.1.0.0,Kochi,Kochi,JP,33.5049,133.5445,781-0250,Asia/Tokyo
104.239.38.143,104.239.38.147,104.239.0.0,Los Angeles,California,US,34.05223,-118.24368,90009,America/Los_Angeles
105.67.129.43,105.67.129.45,105.67.0.0,Casablanca,Casablanca-Settat,MA,33.58831,-7.61138,,Africa/Casablanca
106.207.73.240,106.207.73.255,106.207.0.0,Deoghar,Jharkhand,IN,24.48983,86.69902,814142,Asia/Kolkata
108.176.38.40,108.176.38.43,108.176.0.0,Maspeth,New York,US,40.72316,-73.91264,11378,America/New_York
104.28.87.87,104.28.87.88,104.28.0.0,Lisbon,Lisbon,PT,38.71667,-9.13333,1000-001,Europe/Lisbon
108.184.52.0,108.184.53.255,108.184.0.0,El Monte,California,US,34.0791,-118.0371,91731,America/Los_Angeles
105.109.7.170,105.109.7.170,105.109.0.0,Sétif,Sétif,DZ,36.19112,5.41373,19034,Africa/Algiers
106.214.194.135,106.214.194.136,106.214.0.0,Kolkata,West Bengal,IN,22.56263,88.36304,700006,Asia/Kolkata
106.213.133.248,106.213.133.255,106.213.0.0,Surat,Gujarat,IN,21.19594,72.83023,395005,Asia/Kolkata
102.107.5.38,102.107.5.42,102.107.0.0,Sfax,Şafāqis,TN,34.74056,10.76028,,Africa/Tunis
106.255.211.230,106.255.214.255,106.255.0.0,Seoul,Seoul,KR,37.566,126.9784,03141,Asia/Seoul
104.158.73.4,104.158.73.4,104.158.0.0,Windsor,Ontario,CA,42.30008,-83.01654,N8X,America/Toronto
108.196.133.39,108.196.133.39,108.196.0.0,Yuba City,California,US,39.14045,-121.61691,95991,America/Los_Angeles
106.71.76.188,106.71.76.207,106.71.0.0,Brisbane,Queensland,AU,-27.3188,153.06018,4017,Australia/Brisbane
102.168.118.82,102.168.118.85,102.168.0.0,Sousse,Sūsah,TN,35.82539,10.63699,,Africa/Tunis
104.169.65.178,104.169.65.181,104.169.0.0,Athens,Ohio,US,39.32924,-82.10126,45701,America/New_York
101.109.177.32,101.109.177.47,101.109.0.0,Bang Krathum,Phitsanulok,TH,16.57831,100.30034,65110,Asia/Bangkok
100.16.18.249,100.16.18.249,100.16.0.0,Bel Air,Maryland,US,39.5303,-76.3153,21015,America/New_York
1.247.168.128,1.247.168.135,1.247.0.0,Cheonan,Chungcheongnam-do,KR,36.8065,127.1522,31126,Asia/Seoul
105.112.153.84,105.112.153.87,105.112.0.0,Port Harcourt,Rivers,NG,4.77742,7.0134,,Africa/Lagos
107.207.254.0,107.207.254.255,107.207.0.0,Joshua,Texas,US,32.46153,-97.38807,76058,America/Chicago
106.79.127.229,106.79.127.229,106.79.0.0,Nashik,Maharashtra,IN,19.99727,73.79096,422221,Asia/Kolkata
106.212.186.176,106.212.186.191,106.212.0.0,Jalandhar,Punjab,IN,31.32556,75.57917,144301,Asia/Kolkata
104.59.78.0,104.59.78.255,104.59.0.0,San Diego,California,US,32.8919,-117.2035,92121,America/Los_Angeles
102.168.134.172,102.168.134.172,102.168.0.0,Sfax,Şafāqis,TN,34.74056,10.76028,,Africa/Tunis
107.119.69.88,107.119.69.88,107.119.0.0,Nashville,Tennessee,US,36.16589,-86.78444,37201,America/Chicago
104.240.95.251,104.240.95.252,104.240.0.0,Kayenta,Arizona,US,36.72778,-110.25458,86033,America/Denver
101.191.1.78,101.191.1.79,101.191.0.0,Sydney,New South Wales,AU,-34.0041,151.0806,2225,Australia/Sydney
104.78.79.0,104.78.79.255,104.78.0.0,Chicago,Illinois,US,41.85003,-87.65005,60666,America/Chicago
1.54.8.252,1.54.8.255,1.54.0.0,Nam Định,Nam Định,VN,20.43389,106.17729,07150,Asia/Bangkok
107.127.8.95,107.127.8.95,107.127.0.0,Milwaukee,Wisconsin,US,43.0389,-87.90647,53201,America/Chicago
104.129.126.168,104.129.126.175,104.129.0.0,Hawkesbury,Ontario,CA,45.60009,-74.61595,K6A,America/Toronto
101.49.45.251,101.49.45.251,101.49.0.0,Richmond,Virginia,US,37.55376,-77.46026,23173,America/New_York
105.68.41.101,105.68.41.105,105.68.0.0,Sale,Rabat-Salé-Kénitra,MA,34.0531,-6.79846,,Africa/Casablanca
102.168.227.246,102.168.227.246,102.168.0.0,Sfax,Şafāqis,TN,34.74056,10.76028,,Africa/Tunis
1.158.114.224,1.158.114.243,1.158.0.0,Sydney,New South Wales,AU,-33.758,150.67319,2750,Australia/Sydney
103.98.149.18,103.98.149.23,103.98.0.0,Hanoi,Hanoi,VN,21.0245,105.84117,10000,Asia/Bangkok
107.19.2.25,107.19.2.25,107.19.0.0,Springdale,Arkansas,US,36.1716,-94.0428,72764,America/Chicago
1.53.169.64,1.53.169.239,1.53.0.0,Ho Chi Minh City,Ho Chi Minh,VN,10.82302,106.62965,71606,Asia/Ho_Chi_Minh
105.67.0.205,105.67.0.205,105.67.0.0,Marrakesh,Marrakesh-Safi,MA,31.63416,-7.99994,,Africa/Casablanca
106.220.221.216,106.220.221.219,106.220.0.0,Vite,Maharashtra,IN,17.33078,74.8734,415306,Asia/Kolkata
102.168.162.27,102.168.162.28,102.168.0.0,Sfax,Şafāqis,TN,34.74056,10.76028,,Africa/Tunis
101.173.94.200,101.173.94.237,101.173.0.0,Melbourne,Victoria,AU,-37.7693,145.04797,3079,Australia/Melbourne
104.161.134.68,104.161.134.69,104.161.0.0,Osaka,Ōsaka,JP,34.69374,135.50218,543-0062,Asia/Tokyo
102.170.50.23,102.170.50.23,102.170.0.0,Sfax,Şafāqis,TN,34.74056,10.76028,,Africa/Tunis
1.112.60.120,1.112.60.123,1.112.0.0,Osaka,Ōsaka,JP,34.7108,135.5937,538-0031,Asia/Tokyo
101.173.238.164,101.173.238.164,101.173.0.0,Moss Vale,New South Wales,AU,-34.55374,150.37115,2577,Australia/Sydney
101.165.227.208,101.165.227.209,101.165.0.0,Paynesville,Victoria,AU,-37.91886,147.71944,3880,Australia/Melbourne
103.188.120.0,103.188.121.255,103.188.0.0,Taipei,Taiwan,TW,25.04776,121.53185,,Asia/Taipei
1.28.252.120,1.28.252.121,1.28.0.0,Qingdao,Shandong,CN,36.06488,120.38042,,Asia/Shanghai
102.169.86.227,102.169.86.227,102.169.0.0,Sfax,Şafāqis,TN,34.74056,10.76028,,Africa/Tunis
102.169.23.134,102.169.23.134,102.169.0.0,Sfax,Şafāqis,TN,34.74056,10.76028,,Africa/Tunis
